[
  {
    "zip": "1000",
    "name": "Bruxelles"
  },
  {
    "zip": "1020",
    "name": "Laeken"
  },
  {
    "zip": "1030",
    "name": "Schaerbeek"
  },
  {
    "zip": "1040",
    "name": "Etterbeek"
  },
  {
    "zip": "1050",
    "name": "Ixelles"
  },
  {
    "zip": "1060",
    "name": "Saint-Gilles"
  },
  {
    "zip": "1070",
    "name": "Anderlecht"
  },
  {
    "zip": "1080",
    "name": "Molenbeek-Saint-Jean"
  },
  {
    "zip": "1081",
    "name": "Koekelberg"
  },
  {
    "zip": "1082",
    "name": "Berchem-Sainte-Agathe"
  },
  {
    "zip": "1083",
    "name": "Ganshoren"
  },
  {
    "zip": "1090",
    "name": "Jette"
  },
  {
    "zip": "1120",
    "name": "Neder-Over-Heembeek"
  },
  {
    "zip": "1130",
    "name": "Haren"
  },
  {
    "zip": "1140",
    "name": "Evere"
  },
  {
    "zip": "1150",
    "name": "Woluwe-Saint-Pierre"
  },
  {
    "zip": "1160",
    "name": "Auderghem"
  },
  {
    "zip": "1170",
    "name": "Watermael-Boitsfort"
  },
  {
    "zip": "1180",
    "name": "Uccle"
  },
  {
    "zip": "1190",
    "name": "Forest"
  },
  {
    "zip": "1200",
    "name": "Woluwe-Saint-Lambert"
  },
  {
    "zip": "1210",
    "name": "Saint-Josse-Ten-Noode"
  },
  {
    "zip": "1300",
    "name": "Limal"
  },
  {
    "zip": "1300",
    "name": "Wavre"
  },
  {
    "zip": "1301",
    "name": "Bierges"
  },
  {
    "zip": "1310",
    "name": "La Hulpe"
  },
  {
    "zip": "1315",
    "name": "Glimes"
  },
  {
    "zip": "1315",
    "name": "Incourt"
  },
  {
    "zip": "1315",
    "name": "Opprebais"
  },
  {
    "zip": "1315",
    "name": "Pi\u00e8trebais"
  },
  {
    "zip": "1315",
    "name": "Roux-Miroir"
  },
  {
    "zip": "1320",
    "name": "Beauvechain"
  },
  {
    "zip": "1320",
    "name": "Hamme-Mille"
  },
  {
    "zip": "1320",
    "name": "L'ecluse"
  },
  {
    "zip": "1320",
    "name": "Nodebais"
  },
  {
    "zip": "1320",
    "name": "Tourinnes-La-Grosse"
  },
  {
    "zip": "1325",
    "name": "Bonlez"
  },
  {
    "zip": "1325",
    "name": "Chaumont-Gistoux"
  },
  {
    "zip": "1325",
    "name": "Corroy-Le-Grand"
  },
  {
    "zip": "1325",
    "name": "Dion-Valmont"
  },
  {
    "zip": "1325",
    "name": "Longueville"
  },
  {
    "zip": "1330",
    "name": "Rixensart"
  },
  {
    "zip": "1331",
    "name": "Rosi\u00e8res"
  },
  {
    "zip": "1332",
    "name": "Genval"
  },
  {
    "zip": "1340",
    "name": "Ottignies"
  },
  {
    "zip": "1340",
    "name": "Ottignies-Louvain-La-Neuve"
  },
  {
    "zip": "1341",
    "name": "C\u00e9roux-Mousty"
  },
  {
    "zip": "1342",
    "name": "Limelette"
  },
  {
    "zip": "1348",
    "name": "Louvain-La-Neuve"
  },
  {
    "zip": "1350",
    "name": "Enines"
  },
  {
    "zip": "1350",
    "name": "Folx-Les-Caves"
  },
  {
    "zip": "1350",
    "name": "Jandrain-Jandrenouille"
  },
  {
    "zip": "1350",
    "name": "Jauche"
  },
  {
    "zip": "1350",
    "name": "Marilles"
  },
  {
    "zip": "1350",
    "name": "Noduwez"
  },
  {
    "zip": "1350",
    "name": "Orp-Jauche"
  },
  {
    "zip": "1350",
    "name": "Orp-Le-Grand"
  },
  {
    "zip": "1357",
    "name": "H\u00e9l\u00e9cine"
  },
  {
    "zip": "1357",
    "name": "Linsmeau"
  },
  {
    "zip": "1357",
    "name": "Neerheylissem"
  },
  {
    "zip": "1357",
    "name": "Opheylissem"
  },
  {
    "zip": "1360",
    "name": "Mal\u00e8ves-Sainte-Marie-Wastines"
  },
  {
    "zip": "1360",
    "name": "Orbais"
  },
  {
    "zip": "1360",
    "name": "Perwez"
  },
  {
    "zip": "1360",
    "name": "Thorembais-Les-B\u00e9guines"
  },
  {
    "zip": "1360",
    "name": "Thorembais-Saint-Trond"
  },
  {
    "zip": "1367",
    "name": "Autre-Eglise"
  },
  {
    "zip": "1367",
    "name": "Bomal"
  },
  {
    "zip": "1367",
    "name": "G\u00e9rompont"
  },
  {
    "zip": "1367",
    "name": "Grand-Rosi\u00e8re-Hottomont"
  },
  {
    "zip": "1367",
    "name": "Huppaye"
  },
  {
    "zip": "1367",
    "name": "Mont-Saint-Andr\u00e9"
  },
  {
    "zip": "1367",
    "name": "Ramillies"
  },
  {
    "zip": "1370",
    "name": "Dongelberg"
  },
  {
    "zip": "1370",
    "name": "Jauchelette"
  },
  {
    "zip": "1370",
    "name": "Jodoigne"
  },
  {
    "zip": "1370",
    "name": "Jodoigne-Souveraine"
  },
  {
    "zip": "1370",
    "name": "Lathuy"
  },
  {
    "zip": "1370",
    "name": "M\u00e9lin"
  },
  {
    "zip": "1370",
    "name": "Pi\u00e9train"
  },
  {
    "zip": "1370",
    "name": "Saint-Jean-Geest"
  },
  {
    "zip": "1370",
    "name": "Saint-Remy-Geest"
  },
  {
    "zip": "1370",
    "name": "Z\u00e9trud-Lumay"
  },
  {
    "zip": "1380",
    "name": "Couture-Saint-Germain"
  },
  {
    "zip": "1380",
    "name": "Lasne"
  },
  {
    "zip": "1380",
    "name": "Lasne-Chapelle-Saint-Lambert"
  },
  {
    "zip": "1380",
    "name": "Maransart"
  },
  {
    "zip": "1380",
    "name": "Ohain"
  },
  {
    "zip": "1380",
    "name": "Plancenoit"
  },
  {
    "zip": "1390",
    "name": "Archennes"
  },
  {
    "zip": "1390",
    "name": "Biez"
  },
  {
    "zip": "1390",
    "name": "Bossut-Gottechain"
  },
  {
    "zip": "1390",
    "name": "Grez-Doiceau"
  },
  {
    "zip": "1390",
    "name": "Nethen"
  },
  {
    "zip": "1400",
    "name": "Monstreux"
  },
  {
    "zip": "1400",
    "name": "Nivelles"
  },
  {
    "zip": "1401",
    "name": "Baulers"
  },
  {
    "zip": "1402",
    "name": "Thines"
  },
  {
    "zip": "1404",
    "name": "Bornival"
  },
  {
    "zip": "1410",
    "name": "Waterloo"
  },
  {
    "zip": "1420",
    "name": "Braine-L'alleud"
  },
  {
    "zip": "1421",
    "name": "Ophain-Bois-Seigneur-Isaac"
  },
  {
    "zip": "1428",
    "name": "Lillois-Witterz\u00e9e"
  },
  {
    "zip": "1430",
    "name": "Bierghes"
  },
  {
    "zip": "1430",
    "name": "Quenast"
  },
  {
    "zip": "1430",
    "name": "Rebecq"
  },
  {
    "zip": "1430",
    "name": "Rebecq-Rognon"
  },
  {
    "zip": "1435",
    "name": "Corbais"
  },
  {
    "zip": "1435",
    "name": "H\u00e9villers"
  },
  {
    "zip": "1435",
    "name": "Mont-Saint-Guibert"
  },
  {
    "zip": "1440",
    "name": "Braine-Le-Ch\u00e2teau"
  },
  {
    "zip": "1440",
    "name": "Wauthier-Braine"
  },
  {
    "zip": "1450",
    "name": "Chastre"
  },
  {
    "zip": "1450",
    "name": "Chastre-Villeroux-Blanmont"
  },
  {
    "zip": "1450",
    "name": "Cortil-Noirmont"
  },
  {
    "zip": "1450",
    "name": "Gentinnes"
  },
  {
    "zip": "1450",
    "name": "Saint-G\u00e9ry"
  },
  {
    "zip": "1457",
    "name": "Nil-Saint-Vincent-Saint-Martin"
  },
  {
    "zip": "1457",
    "name": "Tourinnes-Saint-Lambert"
  },
  {
    "zip": "1457",
    "name": "Walhain"
  },
  {
    "zip": "1457",
    "name": "Walhain-Saint-Paul"
  },
  {
    "zip": "1460",
    "name": "Ittre"
  },
  {
    "zip": "1460",
    "name": "Virginal-Samme"
  },
  {
    "zip": "1461",
    "name": "Haut-Ittre"
  },
  {
    "zip": "1470",
    "name": "Baisy-Thy"
  },
  {
    "zip": "1470",
    "name": "Bousval"
  },
  {
    "zip": "1470",
    "name": "Genappe"
  },
  {
    "zip": "1471",
    "name": "Loupoigne"
  },
  {
    "zip": "1472",
    "name": "Vieux-Genappe"
  },
  {
    "zip": "1473",
    "name": "Glabais"
  },
  {
    "zip": "1474",
    "name": "Ways"
  },
  {
    "zip": "1476",
    "name": "Houtain-Le-Val"
  },
  {
    "zip": "1480",
    "name": "Clabecq"
  },
  {
    "zip": "1480",
    "name": "Oisquercq"
  },
  {
    "zip": "1480",
    "name": "Saintes"
  },
  {
    "zip": "1480",
    "name": "Tubize"
  },
  {
    "zip": "1490",
    "name": "Court-Saint-Etienne"
  },
  {
    "zip": "1495",
    "name": "Marbais"
  },
  {
    "zip": "1495",
    "name": "Mellery"
  },
  {
    "zip": "1495",
    "name": "Sart-Dames-Avelines"
  },
  {
    "zip": "1495",
    "name": "Tilly"
  },
  {
    "zip": "1495",
    "name": "Villers-La-Ville"
  },
  {
    "zip": "1500",
    "name": "Halle"
  },
  {
    "zip": "1501",
    "name": "Buizingen"
  },
  {
    "zip": "1502",
    "name": "Lembeek"
  },
  {
    "zip": "1540",
    "name": "Herfelingen"
  },
  {
    "zip": "1540",
    "name": "Herne"
  },
  {
    "zip": "1541",
    "name": "Sint-Pieters-Kapelle"
  },
  {
    "zip": "1547",
    "name": "Bi\u00e9v\u00e8ne"
  },
  {
    "zip": "1560",
    "name": "Hoeilaart"
  },
  {
    "zip": "1570",
    "name": "Galmaarden"
  },
  {
    "zip": "1570",
    "name": "Tollembeek"
  },
  {
    "zip": "1570",
    "name": "Vollezele"
  },
  {
    "zip": "1600",
    "name": "Oudenaken"
  },
  {
    "zip": "1600",
    "name": "Sint-Laureins-Berchem"
  },
  {
    "zip": "1600",
    "name": "Sint-Pieters-Leeuw"
  },
  {
    "zip": "1601",
    "name": "Ruisbroek"
  },
  {
    "zip": "1602",
    "name": "Vlezenbeek"
  },
  {
    "zip": "1620",
    "name": "Drogenbos"
  },
  {
    "zip": "1630",
    "name": "Linkebeek"
  },
  {
    "zip": "1640",
    "name": "Rhode-Saint-Gen\u00e8se"
  },
  {
    "zip": "1650",
    "name": "Beersel"
  },
  {
    "zip": "1651",
    "name": "Lot"
  },
  {
    "zip": "1652",
    "name": "Alsemberg"
  },
  {
    "zip": "1653",
    "name": "Dworp"
  },
  {
    "zip": "1654",
    "name": "Huizingen"
  },
  {
    "zip": "1670",
    "name": "Bogaarden"
  },
  {
    "zip": "1670",
    "name": "Heikruis"
  },
  {
    "zip": "1670",
    "name": "Pepingen"
  },
  {
    "zip": "1671",
    "name": "Elingen"
  },
  {
    "zip": "1673",
    "name": "Beert"
  },
  {
    "zip": "1674",
    "name": "Bellingen"
  },
  {
    "zip": "1700",
    "name": "Dilbeek"
  },
  {
    "zip": "1700",
    "name": "Sint-Martens-Bodegem"
  },
  {
    "zip": "1700",
    "name": "Sint-Ulriks-Kapelle"
  },
  {
    "zip": "1701",
    "name": "Itterbeek"
  },
  {
    "zip": "1702",
    "name": "Groot-Bijgaarden"
  },
  {
    "zip": "1703",
    "name": "Schepdaal"
  },
  {
    "zip": "1730",
    "name": "Asse"
  },
  {
    "zip": "1730",
    "name": "Bekkerzeel"
  },
  {
    "zip": "1730",
    "name": "Kobbegem"
  },
  {
    "zip": "1730",
    "name": "Mollem"
  },
  {
    "zip": "1731",
    "name": "Relegem"
  },
  {
    "zip": "1731",
    "name": "Zellik"
  },
  {
    "zip": "1740",
    "name": "Ternat"
  },
  {
    "zip": "1741",
    "name": "Wambeek"
  },
  {
    "zip": "1742",
    "name": "Sint-Katherina-Lombeek"
  },
  {
    "zip": "1745",
    "name": "Mazenzele"
  },
  {
    "zip": "1745",
    "name": "Opwijk"
  },
  {
    "zip": "1750",
    "name": "Gaasbeek"
  },
  {
    "zip": "1750",
    "name": "Lennik"
  },
  {
    "zip": "1750",
    "name": "Sint-Kwintens-Lennik"
  },
  {
    "zip": "1750",
    "name": "Sint-Martens-Lennik"
  },
  {
    "zip": "1755",
    "name": "Gooik"
  },
  {
    "zip": "1755",
    "name": "Kester"
  },
  {
    "zip": "1755",
    "name": "Leerbeek"
  },
  {
    "zip": "1755",
    "name": "Oetingen"
  },
  {
    "zip": "1760",
    "name": "Onze-Lieve-Vrouw-Lombeek"
  },
  {
    "zip": "1760",
    "name": "Pamel"
  },
  {
    "zip": "1760",
    "name": "Roosdaal"
  },
  {
    "zip": "1760",
    "name": "Strijtem"
  },
  {
    "zip": "1761",
    "name": "Borchtlombeek"
  },
  {
    "zip": "1770",
    "name": "Liedekerke"
  },
  {
    "zip": "1780",
    "name": "Wemmel"
  },
  {
    "zip": "1785",
    "name": "Brussegem"
  },
  {
    "zip": "1785",
    "name": "Hamme"
  },
  {
    "zip": "1785",
    "name": "Merchtem"
  },
  {
    "zip": "1790",
    "name": "Affligem"
  },
  {
    "zip": "1790",
    "name": "Essene"
  },
  {
    "zip": "1790",
    "name": "Hekelgem"
  },
  {
    "zip": "1790",
    "name": "Teralfene"
  },
  {
    "zip": "1800",
    "name": "Peutie"
  },
  {
    "zip": "1800",
    "name": "Vilvoorde"
  },
  {
    "zip": "1820",
    "name": "Melsbroek"
  },
  {
    "zip": "1820",
    "name": "Perk"
  },
  {
    "zip": "1820",
    "name": "Steenokkerzeel"
  },
  {
    "zip": "1830",
    "name": "Machelen"
  },
  {
    "zip": "1831",
    "name": "Diegem"
  },
  {
    "zip": "1840",
    "name": "Londerzeel"
  },
  {
    "zip": "1840",
    "name": "Malderen"
  },
  {
    "zip": "1840",
    "name": "Steenhuffel"
  },
  {
    "zip": "1850",
    "name": "Grimbergen"
  },
  {
    "zip": "1851",
    "name": "Humbeek"
  },
  {
    "zip": "1852",
    "name": "Beigem"
  },
  {
    "zip": "1853",
    "name": "Strombeek-Bever"
  },
  {
    "zip": "1860",
    "name": "Meise"
  },
  {
    "zip": "1861",
    "name": "Wolvertem"
  },
  {
    "zip": "1880",
    "name": "Kapelle-Op-Den-Bos"
  },
  {
    "zip": "1880",
    "name": "Nieuwenrode"
  },
  {
    "zip": "1880",
    "name": "Ramsdonk"
  },
  {
    "zip": "1910",
    "name": "Berg"
  },
  {
    "zip": "1910",
    "name": "Buken"
  },
  {
    "zip": "1910",
    "name": "Kampenhout"
  },
  {
    "zip": "1910",
    "name": "Nederokkerzeel"
  },
  {
    "zip": "1930",
    "name": "Nossegem"
  },
  {
    "zip": "1930",
    "name": "Zaventem"
  },
  {
    "zip": "1932",
    "name": "Sint-Stevens-Woluwe"
  },
  {
    "zip": "1933",
    "name": "Sterrebeek"
  },
  {
    "zip": "1950",
    "name": "Kraainem"
  },
  {
    "zip": "1970",
    "name": "Wezembeek-Oppem"
  },
  {
    "zip": "1980",
    "name": "Eppegem"
  },
  {
    "zip": "1980",
    "name": "Zemst"
  },
  {
    "zip": "1981",
    "name": "Hofstade"
  },
  {
    "zip": "1982",
    "name": "Elewijt"
  },
  {
    "zip": "1982",
    "name": "Weerde"
  },
  {
    "zip": "2000",
    "name": "Antwerpen"
  },
  {
    "zip": "2018",
    "name": "Antwerpen"
  },
  {
    "zip": "2020",
    "name": "Antwerpen"
  },
  {
    "zip": "2030",
    "name": "Antwerpen"
  },
  {
    "zip": "2040",
    "name": "Antwerpen"
  },
  {
    "zip": "2040",
    "name": "Berendrecht"
  },
  {
    "zip": "2040",
    "name": "Lillo"
  },
  {
    "zip": "2040",
    "name": "Zandvliet"
  },
  {
    "zip": "2050",
    "name": "Antwerpen"
  },
  {
    "zip": "2060",
    "name": "Antwerpen"
  },
  {
    "zip": "2070",
    "name": "Burcht"
  },
  {
    "zip": "2070",
    "name": "Zwijndrecht"
  },
  {
    "zip": "2100",
    "name": "Deurne"
  },
  {
    "zip": "2110",
    "name": "Wijnegem"
  },
  {
    "zip": "2140",
    "name": "Borgerhout"
  },
  {
    "zip": "2150",
    "name": "Borsbeek"
  },
  {
    "zip": "2160",
    "name": "Wommelgem"
  },
  {
    "zip": "2170",
    "name": "Merksem"
  },
  {
    "zip": "2180",
    "name": "Ekeren"
  },
  {
    "zip": "2200",
    "name": "Herentals"
  },
  {
    "zip": "2200",
    "name": "Morkhoven"
  },
  {
    "zip": "2200",
    "name": "Noorderwijk"
  },
  {
    "zip": "2220",
    "name": "Hallaar"
  },
  {
    "zip": "2220",
    "name": "Heist-Op-Den-Berg"
  },
  {
    "zip": "2221",
    "name": "Booischot"
  },
  {
    "zip": "2222",
    "name": "Itegem"
  },
  {
    "zip": "2222",
    "name": "Wiekevorst"
  },
  {
    "zip": "2223",
    "name": "Schriek"
  },
  {
    "zip": "2230",
    "name": "Herselt"
  },
  {
    "zip": "2230",
    "name": "Ramsel"
  },
  {
    "zip": "2235",
    "name": "Houtvenne"
  },
  {
    "zip": "2235",
    "name": "Hulshout"
  },
  {
    "zip": "2235",
    "name": "Westmeerbeek"
  },
  {
    "zip": "2240",
    "name": "Massenhoven"
  },
  {
    "zip": "2240",
    "name": "Viersel"
  },
  {
    "zip": "2240",
    "name": "Zandhoven"
  },
  {
    "zip": "2242",
    "name": "Pulderbos"
  },
  {
    "zip": "2243",
    "name": "Pulle"
  },
  {
    "zip": "2250",
    "name": "Olen"
  },
  {
    "zip": "2260",
    "name": "Oevel"
  },
  {
    "zip": "2260",
    "name": "Tongerlo"
  },
  {
    "zip": "2260",
    "name": "Westerlo"
  },
  {
    "zip": "2260",
    "name": "Zoerle-Parwijs"
  },
  {
    "zip": "2270",
    "name": "Herenthout"
  },
  {
    "zip": "2275",
    "name": "Gierle"
  },
  {
    "zip": "2275",
    "name": "Lille"
  },
  {
    "zip": "2275",
    "name": "Poederlee"
  },
  {
    "zip": "2275",
    "name": "Wechelderzande"
  },
  {
    "zip": "2280",
    "name": "Grobbendonk"
  },
  {
    "zip": "2288",
    "name": "Bouwel"
  },
  {
    "zip": "2290",
    "name": "Vorselaar"
  },
  {
    "zip": "2300",
    "name": "Turnhout"
  },
  {
    "zip": "2310",
    "name": "Rijkevorsel"
  },
  {
    "zip": "2320",
    "name": "Hoogstraten"
  },
  {
    "zip": "2321",
    "name": "Meer"
  },
  {
    "zip": "2322",
    "name": "Minderhout"
  },
  {
    "zip": "2323",
    "name": "Wortel"
  },
  {
    "zip": "2328",
    "name": "Meerle"
  },
  {
    "zip": "2330",
    "name": "Merksplas"
  },
  {
    "zip": "2340",
    "name": "Beerse"
  },
  {
    "zip": "2340",
    "name": "Vlimmeren"
  },
  {
    "zip": "2350",
    "name": "Vosselaar"
  },
  {
    "zip": "2360",
    "name": "Oud-Turnhout"
  },
  {
    "zip": "2370",
    "name": "Arendonk"
  },
  {
    "zip": "2380",
    "name": "Ravels"
  },
  {
    "zip": "2381",
    "name": "Weelde"
  },
  {
    "zip": "2382",
    "name": "Poppel"
  },
  {
    "zip": "2387",
    "name": "Baarle-Hertog"
  },
  {
    "zip": "2390",
    "name": "Malle"
  },
  {
    "zip": "2390",
    "name": "Oostmalle"
  },
  {
    "zip": "2390",
    "name": "Westmalle"
  },
  {
    "zip": "2400",
    "name": "Mol"
  },
  {
    "zip": "2430",
    "name": "Eindhout"
  },
  {
    "zip": "2430",
    "name": "Laakdal"
  },
  {
    "zip": "2430",
    "name": "Vorst"
  },
  {
    "zip": "2431",
    "name": "Varendonk"
  },
  {
    "zip": "2431",
    "name": "Veerle"
  },
  {
    "zip": "2440",
    "name": "Geel"
  },
  {
    "zip": "2450",
    "name": "Meerhout"
  },
  {
    "zip": "2460",
    "name": "Kasterlee"
  },
  {
    "zip": "2460",
    "name": "Lichtaart"
  },
  {
    "zip": "2460",
    "name": "Tielen"
  },
  {
    "zip": "2470",
    "name": "Retie"
  },
  {
    "zip": "2480",
    "name": "Dessel"
  },
  {
    "zip": "2490",
    "name": "Balen"
  },
  {
    "zip": "2491",
    "name": "Olmen"
  },
  {
    "zip": "2500",
    "name": "Koningshooikt"
  },
  {
    "zip": "2500",
    "name": "Lier"
  },
  {
    "zip": "2520",
    "name": "Broechem"
  },
  {
    "zip": "2520",
    "name": "Emblem"
  },
  {
    "zip": "2520",
    "name": "Oelegem"
  },
  {
    "zip": "2520",
    "name": "Ranst"
  },
  {
    "zip": "2530",
    "name": "Boechout"
  },
  {
    "zip": "2531",
    "name": "Vremde"
  },
  {
    "zip": "2540",
    "name": "Hove"
  },
  {
    "zip": "2547",
    "name": "Lint"
  },
  {
    "zip": "2550",
    "name": "Kontich"
  },
  {
    "zip": "2550",
    "name": "Waarloos"
  },
  {
    "zip": "2560",
    "name": "Bevel"
  },
  {
    "zip": "2560",
    "name": "Kessel"
  },
  {
    "zip": "2560",
    "name": "Nijlen"
  },
  {
    "zip": "2570",
    "name": "Duffel"
  },
  {
    "zip": "2580",
    "name": "Beerzel"
  },
  {
    "zip": "2580",
    "name": "Putte"
  },
  {
    "zip": "2590",
    "name": "Berlaar"
  },
  {
    "zip": "2590",
    "name": "Gestel"
  },
  {
    "zip": "2600",
    "name": "Berchem"
  },
  {
    "zip": "2610",
    "name": "Wilrijk"
  },
  {
    "zip": "2620",
    "name": "Hemiksem"
  },
  {
    "zip": "2627",
    "name": "Schelle"
  },
  {
    "zip": "2630",
    "name": "Aartselaar"
  },
  {
    "zip": "2640",
    "name": "Mortsel"
  },
  {
    "zip": "2650",
    "name": "Edegem"
  },
  {
    "zip": "2660",
    "name": "Hoboken"
  },
  {
    "zip": "2800",
    "name": "Mechelen"
  },
  {
    "zip": "2800",
    "name": "Walem"
  },
  {
    "zip": "2801",
    "name": "Heffen"
  },
  {
    "zip": "2811",
    "name": "Hombeek"
  },
  {
    "zip": "2811",
    "name": "Leest"
  },
  {
    "zip": "2812",
    "name": "Muizen"
  },
  {
    "zip": "2820",
    "name": "Bonheiden"
  },
  {
    "zip": "2820",
    "name": "Rijmenam"
  },
  {
    "zip": "2830",
    "name": "Blaasveld"
  },
  {
    "zip": "2830",
    "name": "Heindonk"
  },
  {
    "zip": "2830",
    "name": "Tisselt"
  },
  {
    "zip": "2830",
    "name": "Willebroek"
  },
  {
    "zip": "2840",
    "name": "Reet"
  },
  {
    "zip": "2840",
    "name": "Rumst"
  },
  {
    "zip": "2840",
    "name": "Terhagen"
  },
  {
    "zip": "2845",
    "name": "Niel"
  },
  {
    "zip": "2850",
    "name": "Boom"
  },
  {
    "zip": "2860",
    "name": "Sint-Katelijne-Waver"
  },
  {
    "zip": "2861",
    "name": "Onze-Lieve-Vrouw-Waver"
  },
  {
    "zip": "2870",
    "name": "Breendonk"
  },
  {
    "zip": "2870",
    "name": "Liezele"
  },
  {
    "zip": "2870",
    "name": "Puurs"
  },
  {
    "zip": "2870",
    "name": "Ruisbroek"
  },
  {
    "zip": "2880",
    "name": "Bornem"
  },
  {
    "zip": "2880",
    "name": "Hingene"
  },
  {
    "zip": "2880",
    "name": "Mariekerke"
  },
  {
    "zip": "2880",
    "name": "Weert"
  },
  {
    "zip": "2890",
    "name": "Lippelo"
  },
  {
    "zip": "2890",
    "name": "Oppuurs"
  },
  {
    "zip": "2890",
    "name": "Sint-Amands"
  },
  {
    "zip": "2900",
    "name": "Schoten"
  },
  {
    "zip": "2910",
    "name": "Essen"
  },
  {
    "zip": "2920",
    "name": "Kalmthout"
  },
  {
    "zip": "2930",
    "name": "Brasschaat"
  },
  {
    "zip": "2940",
    "name": "Hoevenen"
  },
  {
    "zip": "2940",
    "name": "Stabroek"
  },
  {
    "zip": "2950",
    "name": "Kapellen"
  },
  {
    "zip": "2960",
    "name": "Brecht"
  },
  {
    "zip": "2960",
    "name": "Sint-Job-In-'t-Goor"
  },
  {
    "zip": "2960",
    "name": "Sint-Lenaarts"
  },
  {
    "zip": "2970",
    "name": "'s Gravenwezel"
  },
  {
    "zip": "2970",
    "name": "Schilde"
  },
  {
    "zip": "2980",
    "name": "Halle"
  },
  {
    "zip": "2980",
    "name": "Zoersel"
  },
  {
    "zip": "2990",
    "name": "Loenhout"
  },
  {
    "zip": "2990",
    "name": "Wuustwezel"
  },
  {
    "zip": "3000",
    "name": "Leuven"
  },
  {
    "zip": "3001",
    "name": "Heverlee"
  },
  {
    "zip": "3010",
    "name": "Kessel Lo"
  },
  {
    "zip": "3012",
    "name": "Wilsele"
  },
  {
    "zip": "3018",
    "name": "Wijgmaal"
  },
  {
    "zip": "3020",
    "name": "Herent"
  },
  {
    "zip": "3020",
    "name": "Veltem-Beisem"
  },
  {
    "zip": "3020",
    "name": "Winksele"
  },
  {
    "zip": "3040",
    "name": "Huldenberg"
  },
  {
    "zip": "3040",
    "name": "Loonbeek"
  },
  {
    "zip": "3040",
    "name": "Neerijse"
  },
  {
    "zip": "3040",
    "name": "Ottenburg"
  },
  {
    "zip": "3040",
    "name": "Sint-Agatha-Rode"
  },
  {
    "zip": "3050",
    "name": "Oud-Heverlee"
  },
  {
    "zip": "3051",
    "name": "Sint-Joris-Weert"
  },
  {
    "zip": "3052",
    "name": "Blanden"
  },
  {
    "zip": "3053",
    "name": "Haasrode"
  },
  {
    "zip": "3054",
    "name": "Vaalbeek"
  },
  {
    "zip": "3060",
    "name": "Bertem"
  },
  {
    "zip": "3060",
    "name": "Korbeek-Dijle"
  },
  {
    "zip": "3061",
    "name": "Leefdaal"
  },
  {
    "zip": "3070",
    "name": "Kortenberg"
  },
  {
    "zip": "3071",
    "name": "Erps-Kwerps"
  },
  {
    "zip": "3078",
    "name": "Everberg"
  },
  {
    "zip": "3078",
    "name": "Meerbeek"
  },
  {
    "zip": "3080",
    "name": "Duisburg"
  },
  {
    "zip": "3080",
    "name": "Tervuren"
  },
  {
    "zip": "3080",
    "name": "Vossem"
  },
  {
    "zip": "3090",
    "name": "Overijse"
  },
  {
    "zip": "3110",
    "name": "Rotselaar"
  },
  {
    "zip": "3111",
    "name": "Wezemaal"
  },
  {
    "zip": "3118",
    "name": "Werchter"
  },
  {
    "zip": "3120",
    "name": "Tremelo"
  },
  {
    "zip": "3128",
    "name": "Baal"
  },
  {
    "zip": "3130",
    "name": "Begijnendijk"
  },
  {
    "zip": "3130",
    "name": "Betekom"
  },
  {
    "zip": "3140",
    "name": "Keerbergen"
  },
  {
    "zip": "3150",
    "name": "Haacht"
  },
  {
    "zip": "3150",
    "name": "Tildonk"
  },
  {
    "zip": "3150",
    "name": "Wespelaar"
  },
  {
    "zip": "3190",
    "name": "Boortmeerbeek"
  },
  {
    "zip": "3191",
    "name": "Hever"
  },
  {
    "zip": "3200",
    "name": "Aarschot"
  },
  {
    "zip": "3200",
    "name": "Gelrode"
  },
  {
    "zip": "3201",
    "name": "Langdorp"
  },
  {
    "zip": "3202",
    "name": "Rillaar"
  },
  {
    "zip": "3210",
    "name": "Linden"
  },
  {
    "zip": "3210",
    "name": "Lubbeek"
  },
  {
    "zip": "3211",
    "name": "Binkom"
  },
  {
    "zip": "3212",
    "name": "Pellenberg"
  },
  {
    "zip": "3220",
    "name": "Holsbeek"
  },
  {
    "zip": "3220",
    "name": "Kortrijk-Dutsel"
  },
  {
    "zip": "3220",
    "name": "Sint-Pieters-Rode"
  },
  {
    "zip": "3221",
    "name": "Nieuwrode"
  },
  {
    "zip": "3270",
    "name": "Scherpenheuvel"
  },
  {
    "zip": "3270",
    "name": "Scherpenheuvel-Zichem"
  },
  {
    "zip": "3271",
    "name": "Averbode"
  },
  {
    "zip": "3271",
    "name": "Zichem"
  },
  {
    "zip": "3272",
    "name": "Messelbroek"
  },
  {
    "zip": "3272",
    "name": "Testelt"
  },
  {
    "zip": "3290",
    "name": "Deurne"
  },
  {
    "zip": "3290",
    "name": "Diest"
  },
  {
    "zip": "3290",
    "name": "Schaffen"
  },
  {
    "zip": "3290",
    "name": "Webbekom"
  },
  {
    "zip": "3293",
    "name": "Kaggevinne"
  },
  {
    "zip": "3294",
    "name": "Molenstede"
  },
  {
    "zip": "3300",
    "name": "Bost"
  },
  {
    "zip": "3300",
    "name": "Goetsenhoven"
  },
  {
    "zip": "3300",
    "name": "Hakendover"
  },
  {
    "zip": "3300",
    "name": "Kumtich"
  },
  {
    "zip": "3300",
    "name": "Oorbeek"
  },
  {
    "zip": "3300",
    "name": "Oplinter"
  },
  {
    "zip": "3300",
    "name": "Sint-Margriete-Houtem"
  },
  {
    "zip": "3300",
    "name": "Tienen"
  },
  {
    "zip": "3300",
    "name": "Vissenaken"
  },
  {
    "zip": "3320",
    "name": "Hoegaarden"
  },
  {
    "zip": "3320",
    "name": "Meldert"
  },
  {
    "zip": "3321",
    "name": "Outgaarden"
  },
  {
    "zip": "3350",
    "name": "Drieslinter"
  },
  {
    "zip": "3350",
    "name": "Linter"
  },
  {
    "zip": "3350",
    "name": "Melkwezer"
  },
  {
    "zip": "3350",
    "name": "Neerhespen"
  },
  {
    "zip": "3350",
    "name": "Neerlinter"
  },
  {
    "zip": "3350",
    "name": "Orsmaal-Gussenhoven"
  },
  {
    "zip": "3350",
    "name": "Overhespen"
  },
  {
    "zip": "3350",
    "name": "Wommersom"
  },
  {
    "zip": "3360",
    "name": "Bierbeek"
  },
  {
    "zip": "3360",
    "name": "Korbeek-Lo"
  },
  {
    "zip": "3360",
    "name": "Lovenjoel"
  },
  {
    "zip": "3360",
    "name": "Opvelp"
  },
  {
    "zip": "3370",
    "name": "Boutersem"
  },
  {
    "zip": "3370",
    "name": "Kerkom"
  },
  {
    "zip": "3370",
    "name": "Neervelp"
  },
  {
    "zip": "3370",
    "name": "Roosbeek"
  },
  {
    "zip": "3370",
    "name": "Vertrijk"
  },
  {
    "zip": "3370",
    "name": "Willebringen"
  },
  {
    "zip": "3380",
    "name": "Bunsbeek"
  },
  {
    "zip": "3380",
    "name": "Glabbeek"
  },
  {
    "zip": "3381",
    "name": "Kapellen"
  },
  {
    "zip": "3384",
    "name": "Attenrode"
  },
  {
    "zip": "3390",
    "name": "Houwaart"
  },
  {
    "zip": "3390",
    "name": "Sint-Joris-Winge"
  },
  {
    "zip": "3390",
    "name": "Tielt"
  },
  {
    "zip": "3390",
    "name": "Tielt-Winge"
  },
  {
    "zip": "3391",
    "name": "Meensel-Kiezegem"
  },
  {
    "zip": "3400",
    "name": "Eliksem"
  },
  {
    "zip": "3400",
    "name": "Ezemaal"
  },
  {
    "zip": "3400",
    "name": "Laar"
  },
  {
    "zip": "3400",
    "name": "Landen"
  },
  {
    "zip": "3400",
    "name": "Neerwinden"
  },
  {
    "zip": "3400",
    "name": "Overwinden"
  },
  {
    "zip": "3400",
    "name": "Rumsdorp"
  },
  {
    "zip": "3400",
    "name": "Wange"
  },
  {
    "zip": "3401",
    "name": "Waasmont"
  },
  {
    "zip": "3401",
    "name": "Walsbets"
  },
  {
    "zip": "3401",
    "name": "Walshoutem"
  },
  {
    "zip": "3401",
    "name": "Wezeren"
  },
  {
    "zip": "3404",
    "name": "Attenhoven"
  },
  {
    "zip": "3404",
    "name": "Neerlanden"
  },
  {
    "zip": "3440",
    "name": "Budingen"
  },
  {
    "zip": "3440",
    "name": "Dormaal"
  },
  {
    "zip": "3440",
    "name": "Halle-Booienhoven"
  },
  {
    "zip": "3440",
    "name": "Helen-Bos"
  },
  {
    "zip": "3440",
    "name": "Zoutleeuw"
  },
  {
    "zip": "3450",
    "name": "Geetbets"
  },
  {
    "zip": "3450",
    "name": "Grazen"
  },
  {
    "zip": "3454",
    "name": "Rummen"
  },
  {
    "zip": "3460",
    "name": "Assent"
  },
  {
    "zip": "3460",
    "name": "Bekkevoort"
  },
  {
    "zip": "3461",
    "name": "Molenbeek-Wersbeek"
  },
  {
    "zip": "3470",
    "name": "Kortenaken"
  },
  {
    "zip": "3470",
    "name": "Ransberg"
  },
  {
    "zip": "3470",
    "name": "Sint-Margriete-Houtem"
  },
  {
    "zip": "3471",
    "name": "Hoeleden"
  },
  {
    "zip": "3472",
    "name": "Kersbeek-Miskom"
  },
  {
    "zip": "3473",
    "name": "Waanrode"
  },
  {
    "zip": "3500",
    "name": "Hasselt"
  },
  {
    "zip": "3500",
    "name": "Sint-Lambrechts-Herk"
  },
  {
    "zip": "3501",
    "name": "Wimmertingen"
  },
  {
    "zip": "3510",
    "name": "Kermt"
  },
  {
    "zip": "3510",
    "name": "Spalbeek"
  },
  {
    "zip": "3511",
    "name": "Kuringen"
  },
  {
    "zip": "3511",
    "name": "Stokrooie"
  },
  {
    "zip": "3512",
    "name": "Stevoort"
  },
  {
    "zip": "3520",
    "name": "Zonhoven"
  },
  {
    "zip": "3530",
    "name": "Helchteren"
  },
  {
    "zip": "3530",
    "name": "Houthalen"
  },
  {
    "zip": "3530",
    "name": "Houthalen-Helchteren"
  },
  {
    "zip": "3540",
    "name": "Berbroek"
  },
  {
    "zip": "3540",
    "name": "Donk"
  },
  {
    "zip": "3540",
    "name": "Herk-De-Stad"
  },
  {
    "zip": "3540",
    "name": "Schulen"
  },
  {
    "zip": "3545",
    "name": "Halen"
  },
  {
    "zip": "3545",
    "name": "Loksbergen"
  },
  {
    "zip": "3545",
    "name": "Zelem"
  },
  {
    "zip": "3550",
    "name": "Heusden"
  },
  {
    "zip": "3550",
    "name": "Heusden-Zolder"
  },
  {
    "zip": "3550",
    "name": "Zolder"
  },
  {
    "zip": "3560",
    "name": "Linkhout"
  },
  {
    "zip": "3560",
    "name": "Lummen"
  },
  {
    "zip": "3560",
    "name": "Meldert"
  },
  {
    "zip": "3570",
    "name": "Alken"
  },
  {
    "zip": "3580",
    "name": "Beringen"
  },
  {
    "zip": "3581",
    "name": "Beverlo"
  },
  {
    "zip": "3582",
    "name": "Koersel"
  },
  {
    "zip": "3583",
    "name": "Paal"
  },
  {
    "zip": "3590",
    "name": "Diepenbeek"
  },
  {
    "zip": "3600",
    "name": "Genk"
  },
  {
    "zip": "3620",
    "name": "Gellik"
  },
  {
    "zip": "3620",
    "name": "Lanaken"
  },
  {
    "zip": "3620",
    "name": "Neerharen"
  },
  {
    "zip": "3620",
    "name": "Veldwezelt"
  },
  {
    "zip": "3621",
    "name": "Rekem"
  },
  {
    "zip": "3630",
    "name": "Eisden"
  },
  {
    "zip": "3630",
    "name": "Leut"
  },
  {
    "zip": "3630",
    "name": "Maasmechelen"
  },
  {
    "zip": "3630",
    "name": "Mechelen-Aan-De-Maas"
  },
  {
    "zip": "3630",
    "name": "Meeswijk"
  },
  {
    "zip": "3630",
    "name": "Opgrimbie"
  },
  {
    "zip": "3630",
    "name": "Vucht"
  },
  {
    "zip": "3631",
    "name": "Boorsem"
  },
  {
    "zip": "3631",
    "name": "Uikhoven"
  },
  {
    "zip": "3640",
    "name": "Kessenich"
  },
  {
    "zip": "3640",
    "name": "Kinrooi"
  },
  {
    "zip": "3640",
    "name": "Molenbeersel"
  },
  {
    "zip": "3640",
    "name": "Ophoven"
  },
  {
    "zip": "3650",
    "name": "Dilsen"
  },
  {
    "zip": "3650",
    "name": "Dilsen-Stokkem"
  },
  {
    "zip": "3650",
    "name": "Elen"
  },
  {
    "zip": "3650",
    "name": "Lanklaar"
  },
  {
    "zip": "3650",
    "name": "Rotem"
  },
  {
    "zip": "3650",
    "name": "Stokkem"
  },
  {
    "zip": "3660",
    "name": "Opglabbeek"
  },
  {
    "zip": "3665",
    "name": "As"
  },
  {
    "zip": "3668",
    "name": "Niel-Bij-As"
  },
  {
    "zip": "3670",
    "name": "Ellikom"
  },
  {
    "zip": "3670",
    "name": "Gruitrode"
  },
  {
    "zip": "3670",
    "name": "Meeuwen"
  },
  {
    "zip": "3670",
    "name": "Meeuwen-Gruitrode"
  },
  {
    "zip": "3670",
    "name": "Neerglabbeek"
  },
  {
    "zip": "3670",
    "name": "Wijshagen"
  },
  {
    "zip": "3680",
    "name": "Maaseik"
  },
  {
    "zip": "3680",
    "name": "Neeroeteren"
  },
  {
    "zip": "3680",
    "name": "Opoeteren"
  },
  {
    "zip": "3690",
    "name": "Zutendaal"
  },
  {
    "zip": "3700",
    "name": "'s Herenelderen"
  },
  {
    "zip": "3700",
    "name": "Berg"
  },
  {
    "zip": "3700",
    "name": "Diets-Heur"
  },
  {
    "zip": "3700",
    "name": "Haren"
  },
  {
    "zip": "3700",
    "name": "Henis"
  },
  {
    "zip": "3700",
    "name": "Kolmont"
  },
  {
    "zip": "3700",
    "name": "Koninksem"
  },
  {
    "zip": "3700",
    "name": "Lauw"
  },
  {
    "zip": "3700",
    "name": "Mal"
  },
  {
    "zip": "3700",
    "name": "Neerrepen"
  },
  {
    "zip": "3700",
    "name": "Nerem"
  },
  {
    "zip": "3700",
    "name": "Overrepen"
  },
  {
    "zip": "3700",
    "name": "Piringen"
  },
  {
    "zip": "3700",
    "name": "Riksingen"
  },
  {
    "zip": "3700",
    "name": "Rutten"
  },
  {
    "zip": "3700",
    "name": "Sluizen"
  },
  {
    "zip": "3700",
    "name": "Tongeren"
  },
  {
    "zip": "3700",
    "name": "Vreren"
  },
  {
    "zip": "3700",
    "name": "Widooie"
  },
  {
    "zip": "3717",
    "name": "Herstappe"
  },
  {
    "zip": "3720",
    "name": "Kortessem"
  },
  {
    "zip": "3721",
    "name": "Vliermaalroot"
  },
  {
    "zip": "3722",
    "name": "Wintershoven"
  },
  {
    "zip": "3723",
    "name": "Guigoven"
  },
  {
    "zip": "3724",
    "name": "Vliermaal"
  },
  {
    "zip": "3730",
    "name": "Hoeselt"
  },
  {
    "zip": "3730",
    "name": "Romershoven"
  },
  {
    "zip": "3730",
    "name": "Sint-Huibrechts-Hern"
  },
  {
    "zip": "3730",
    "name": "Werm"
  },
  {
    "zip": "3732",
    "name": "Schalkhoven"
  },
  {
    "zip": "3740",
    "name": "Beverst"
  },
  {
    "zip": "3740",
    "name": "Bilzen"
  },
  {
    "zip": "3740",
    "name": "Eigenbilzen"
  },
  {
    "zip": "3740",
    "name": "Grote-Spouwen"
  },
  {
    "zip": "3740",
    "name": "Hees"
  },
  {
    "zip": "3740",
    "name": "Kleine-Spouwen"
  },
  {
    "zip": "3740",
    "name": "Mopertingen"
  },
  {
    "zip": "3740",
    "name": "Munsterbilzen"
  },
  {
    "zip": "3740",
    "name": "Rijkhoven"
  },
  {
    "zip": "3740",
    "name": "Rosmeer"
  },
  {
    "zip": "3740",
    "name": "Waltwilder"
  },
  {
    "zip": "3742",
    "name": "Martenslinde"
  },
  {
    "zip": "3746",
    "name": "Hoelbeek"
  },
  {
    "zip": "3770",
    "name": "Genoelselderen"
  },
  {
    "zip": "3770",
    "name": "Herderen"
  },
  {
    "zip": "3770",
    "name": "Kanne"
  },
  {
    "zip": "3770",
    "name": "Membruggen"
  },
  {
    "zip": "3770",
    "name": "Millen"
  },
  {
    "zip": "3770",
    "name": "Riemst"
  },
  {
    "zip": "3770",
    "name": "Val-Meer"
  },
  {
    "zip": "3770",
    "name": "Vlijtingen"
  },
  {
    "zip": "3770",
    "name": "Vroenhoven"
  },
  {
    "zip": "3770",
    "name": "Zichen-Zussen-Bolder"
  },
  {
    "zip": "3790",
    "name": "Fouron-Saint-Martin"
  },
  {
    "zip": "3790",
    "name": "Fourons"
  },
  {
    "zip": "3790",
    "name": "Mouland"
  },
  {
    "zip": "3791",
    "name": "Remersdaal"
  },
  {
    "zip": "3792",
    "name": "Fouron-Saint-Pierre"
  },
  {
    "zip": "3793",
    "name": "Teuven"
  },
  {
    "zip": "3798",
    "name": "Fouron-Le-Comte"
  },
  {
    "zip": "3800",
    "name": "Aalst"
  },
  {
    "zip": "3800",
    "name": "Brustem"
  },
  {
    "zip": "3800",
    "name": "Engelmanshoven"
  },
  {
    "zip": "3800",
    "name": "Gelinden"
  },
  {
    "zip": "3800",
    "name": "Groot-Gelmen"
  },
  {
    "zip": "3800",
    "name": "Halmaal"
  },
  {
    "zip": "3800",
    "name": "Kerkom-Bij-Sint-Truiden"
  },
  {
    "zip": "3800",
    "name": "Ordingen"
  },
  {
    "zip": "3800",
    "name": "Sint-Truiden"
  },
  {
    "zip": "3800",
    "name": "Zepperen"
  },
  {
    "zip": "3803",
    "name": "Duras"
  },
  {
    "zip": "3803",
    "name": "Gorsem"
  },
  {
    "zip": "3803",
    "name": "Runkelen"
  },
  {
    "zip": "3803",
    "name": "Wilderen"
  },
  {
    "zip": "3806",
    "name": "Velm"
  },
  {
    "zip": "3830",
    "name": "Berlingen"
  },
  {
    "zip": "3830",
    "name": "Wellen"
  },
  {
    "zip": "3831",
    "name": "Herten"
  },
  {
    "zip": "3832",
    "name": "Ulbeek"
  },
  {
    "zip": "3840",
    "name": "Bommershoven"
  },
  {
    "zip": "3840",
    "name": "Borgloon"
  },
  {
    "zip": "3840",
    "name": "Broekom"
  },
  {
    "zip": "3840",
    "name": "Gors-Opleeuw"
  },
  {
    "zip": "3840",
    "name": "Gotem"
  },
  {
    "zip": "3840",
    "name": "Groot-Loon"
  },
  {
    "zip": "3840",
    "name": "Haren"
  },
  {
    "zip": "3840",
    "name": "Hendrieken"
  },
  {
    "zip": "3840",
    "name": "Hoepertingen"
  },
  {
    "zip": "3840",
    "name": "Jesseren"
  },
  {
    "zip": "3840",
    "name": "Kerniel"
  },
  {
    "zip": "3840",
    "name": "Kolmont"
  },
  {
    "zip": "3840",
    "name": "Kuttekoven"
  },
  {
    "zip": "3840",
    "name": "Rijkel"
  },
  {
    "zip": "3840",
    "name": "Voort"
  },
  {
    "zip": "3850",
    "name": "Binderveld"
  },
  {
    "zip": "3850",
    "name": "Kozen"
  },
  {
    "zip": "3850",
    "name": "Nieuwerkerken"
  },
  {
    "zip": "3850",
    "name": "Wijer"
  },
  {
    "zip": "3870",
    "name": "Batsheers"
  },
  {
    "zip": "3870",
    "name": "Bovelingen"
  },
  {
    "zip": "3870",
    "name": "Heers"
  },
  {
    "zip": "3870",
    "name": "Heks"
  },
  {
    "zip": "3870",
    "name": "Horpmaal"
  },
  {
    "zip": "3870",
    "name": "Klein-Gelmen"
  },
  {
    "zip": "3870",
    "name": "Mechelen-Bovelingen"
  },
  {
    "zip": "3870",
    "name": "Mettekoven"
  },
  {
    "zip": "3870",
    "name": "Opheers"
  },
  {
    "zip": "3870",
    "name": "Rukkelingen-Loon"
  },
  {
    "zip": "3870",
    "name": "Vechmaal"
  },
  {
    "zip": "3870",
    "name": "Veulen"
  },
  {
    "zip": "3890",
    "name": "Boekhout"
  },
  {
    "zip": "3890",
    "name": "Gingelom"
  },
  {
    "zip": "3890",
    "name": "Jeuk"
  },
  {
    "zip": "3890",
    "name": "Kortijs"
  },
  {
    "zip": "3890",
    "name": "Montenaken"
  },
  {
    "zip": "3890",
    "name": "Niel-Bij-Sint-Truiden"
  },
  {
    "zip": "3890",
    "name": "Vorsen"
  },
  {
    "zip": "3891",
    "name": "Borlo"
  },
  {
    "zip": "3891",
    "name": "Buvingen"
  },
  {
    "zip": "3891",
    "name": "Mielen-Boven-Aalst"
  },
  {
    "zip": "3891",
    "name": "Muizen"
  },
  {
    "zip": "3900",
    "name": "Overpelt"
  },
  {
    "zip": "3910",
    "name": "Neerpelt"
  },
  {
    "zip": "3910",
    "name": "Sint-Huibrechts-Lille"
  },
  {
    "zip": "3920",
    "name": "Lommel"
  },
  {
    "zip": "3930",
    "name": "Achel"
  },
  {
    "zip": "3930",
    "name": "Hamont"
  },
  {
    "zip": "3930",
    "name": "Hamont-Achel"
  },
  {
    "zip": "3940",
    "name": "Hechtel"
  },
  {
    "zip": "3940",
    "name": "Hechtel-Eksel"
  },
  {
    "zip": "3941",
    "name": "Eksel"
  },
  {
    "zip": "3945",
    "name": "Ham"
  },
  {
    "zip": "3945",
    "name": "Kwaadmechelen"
  },
  {
    "zip": "3945",
    "name": "Oostham"
  },
  {
    "zip": "3950",
    "name": "Bocholt"
  },
  {
    "zip": "3950",
    "name": "Kaulille"
  },
  {
    "zip": "3950",
    "name": "Reppel"
  },
  {
    "zip": "3960",
    "name": "Beek"
  },
  {
    "zip": "3960",
    "name": "Bree"
  },
  {
    "zip": "3960",
    "name": "Gerdingen"
  },
  {
    "zip": "3960",
    "name": "Opitter"
  },
  {
    "zip": "3960",
    "name": "Tongerlo"
  },
  {
    "zip": "3970",
    "name": "Leopoldsburg"
  },
  {
    "zip": "3971",
    "name": "Heppen"
  },
  {
    "zip": "3980",
    "name": "Tessenderlo"
  },
  {
    "zip": "3990",
    "name": "Grote-Brogel"
  },
  {
    "zip": "3990",
    "name": "Kleine-Brogel"
  },
  {
    "zip": "3990",
    "name": "Peer"
  },
  {
    "zip": "3990",
    "name": "Wijchmaal"
  },
  {
    "zip": "4000",
    "name": "Glain"
  },
  {
    "zip": "4000",
    "name": "Li\u00e8ge"
  },
  {
    "zip": "4000",
    "name": "Rocourt"
  },
  {
    "zip": "4020",
    "name": "Bressoux"
  },
  {
    "zip": "4020",
    "name": "Jupille-Sur-Meuse"
  },
  {
    "zip": "4020",
    "name": "Li\u00e8ge"
  },
  {
    "zip": "4020",
    "name": "Wandre"
  },
  {
    "zip": "4030",
    "name": "Grivegnee"
  },
  {
    "zip": "4031",
    "name": "Angleur"
  },
  {
    "zip": "4032",
    "name": "Ch\u00eanee"
  },
  {
    "zip": "4040",
    "name": "Herstal"
  },
  {
    "zip": "4041",
    "name": "Milmort"
  },
  {
    "zip": "4041",
    "name": "Vottem"
  },
  {
    "zip": "4042",
    "name": "Liers"
  },
  {
    "zip": "4050",
    "name": "Chaudfontaine"
  },
  {
    "zip": "4051",
    "name": "Vaux-Sous-Ch\u00e8vremont"
  },
  {
    "zip": "4052",
    "name": "Beaufays"
  },
  {
    "zip": "4053",
    "name": "Embourg"
  },
  {
    "zip": "4100",
    "name": "Boncelles"
  },
  {
    "zip": "4100",
    "name": "Seraing"
  },
  {
    "zip": "4101",
    "name": "Jemeppe-Sur-Meuse"
  },
  {
    "zip": "4102",
    "name": "Ougr\u00e9e"
  },
  {
    "zip": "4120",
    "name": "Ehein"
  },
  {
    "zip": "4120",
    "name": "Neupr\u00e9"
  },
  {
    "zip": "4120",
    "name": "Rotheux-Rimi\u00e8re"
  },
  {
    "zip": "4121",
    "name": "Neuville-En-Condroz"
  },
  {
    "zip": "4122",
    "name": "Plainevaux"
  },
  {
    "zip": "4130",
    "name": "Esneux"
  },
  {
    "zip": "4130",
    "name": "Tilff"
  },
  {
    "zip": "4140",
    "name": "Dolembreux"
  },
  {
    "zip": "4140",
    "name": "Gomz\u00e9-Andoumont"
  },
  {
    "zip": "4140",
    "name": "Rouvreux"
  },
  {
    "zip": "4140",
    "name": "Sprimont"
  },
  {
    "zip": "4141",
    "name": "Louveign\u00e9"
  },
  {
    "zip": "4160",
    "name": "Anthisnes"
  },
  {
    "zip": "4161",
    "name": "Villers-Aux-Tours"
  },
  {
    "zip": "4162",
    "name": "Hody"
  },
  {
    "zip": "4163",
    "name": "Tavier"
  },
  {
    "zip": "4170",
    "name": "Comblain-Au-Pont"
  },
  {
    "zip": "4171",
    "name": "Poulseur"
  },
  {
    "zip": "4180",
    "name": "Comblain-Fairon"
  },
  {
    "zip": "4180",
    "name": "Comblain-La-Tour"
  },
  {
    "zip": "4180",
    "name": "Hamoir"
  },
  {
    "zip": "4181",
    "name": "Filot"
  },
  {
    "zip": "4190",
    "name": "Ferri\u00e8res"
  },
  {
    "zip": "4190",
    "name": "My"
  },
  {
    "zip": "4190",
    "name": "Vieuxville"
  },
  {
    "zip": "4190",
    "name": "Werbomont"
  },
  {
    "zip": "4190",
    "name": "Xhoris"
  },
  {
    "zip": "4210",
    "name": "Burdinne"
  },
  {
    "zip": "4210",
    "name": "Hann\u00eache"
  },
  {
    "zip": "4210",
    "name": "Lamontz\u00e9e"
  },
  {
    "zip": "4210",
    "name": "Marneffe"
  },
  {
    "zip": "4210",
    "name": "Oteppe"
  },
  {
    "zip": "4217",
    "name": "H\u00e9ron"
  },
  {
    "zip": "4217",
    "name": "Lavoir"
  },
  {
    "zip": "4217",
    "name": "Waret-L'ev\u00eaque"
  },
  {
    "zip": "4218",
    "name": "Couthuin"
  },
  {
    "zip": "4219",
    "name": "Acosse"
  },
  {
    "zip": "4219",
    "name": "Ambresin"
  },
  {
    "zip": "4219",
    "name": "Meeffe"
  },
  {
    "zip": "4219",
    "name": "Wasseiges"
  },
  {
    "zip": "4250",
    "name": "Bo\u00eblhe"
  },
  {
    "zip": "4250",
    "name": "Geer"
  },
  {
    "zip": "4250",
    "name": "Hollogne-Sur-Geer"
  },
  {
    "zip": "4250",
    "name": "Lens-Saint-Servais"
  },
  {
    "zip": "4252",
    "name": "Omal"
  },
  {
    "zip": "4253",
    "name": "Darion"
  },
  {
    "zip": "4254",
    "name": "Ligney"
  },
  {
    "zip": "4257",
    "name": "Berloz"
  },
  {
    "zip": "4257",
    "name": "Corswarem"
  },
  {
    "zip": "4260",
    "name": "Avennes"
  },
  {
    "zip": "4260",
    "name": "Braives"
  },
  {
    "zip": "4260",
    "name": "Ciplet"
  },
  {
    "zip": "4260",
    "name": "Fallais"
  },
  {
    "zip": "4260",
    "name": "Fumal"
  },
  {
    "zip": "4260",
    "name": "Ville-En-Hesbaye"
  },
  {
    "zip": "4261",
    "name": "Latinne"
  },
  {
    "zip": "4263",
    "name": "Tourinne"
  },
  {
    "zip": "4280",
    "name": "Abolens"
  },
  {
    "zip": "4280",
    "name": "Avernas-Le-Bauduin"
  },
  {
    "zip": "4280",
    "name": "Avin"
  },
  {
    "zip": "4280",
    "name": "Bertr\u00e9e"
  },
  {
    "zip": "4280",
    "name": "Blehen"
  },
  {
    "zip": "4280",
    "name": "Cras-Avernas"
  },
  {
    "zip": "4280",
    "name": "Crehen"
  },
  {
    "zip": "4280",
    "name": "Grand-Hallet"
  },
  {
    "zip": "4280",
    "name": "Hannut"
  },
  {
    "zip": "4280",
    "name": "Lens-Saint-Remy"
  },
  {
    "zip": "4280",
    "name": "Merdorp"
  },
  {
    "zip": "4280",
    "name": "Moxhe"
  },
  {
    "zip": "4280",
    "name": "Petit-Hallet"
  },
  {
    "zip": "4280",
    "name": "Poucet"
  },
  {
    "zip": "4280",
    "name": "Thisnes"
  },
  {
    "zip": "4280",
    "name": "Trogn\u00e9e"
  },
  {
    "zip": "4280",
    "name": "Villers-Le-Peuplier"
  },
  {
    "zip": "4280",
    "name": "Wansin"
  },
  {
    "zip": "4287",
    "name": "Lincent"
  },
  {
    "zip": "4287",
    "name": "Pellaines"
  },
  {
    "zip": "4287",
    "name": "Racour"
  },
  {
    "zip": "4300",
    "name": "Bettincourt"
  },
  {
    "zip": "4300",
    "name": "Bleret"
  },
  {
    "zip": "4300",
    "name": "Bovenistier"
  },
  {
    "zip": "4300",
    "name": "Grand-Axhe"
  },
  {
    "zip": "4300",
    "name": "Lantremange"
  },
  {
    "zip": "4300",
    "name": "Oleye"
  },
  {
    "zip": "4300",
    "name": "Waremme"
  },
  {
    "zip": "4317",
    "name": "Aineffe"
  },
  {
    "zip": "4317",
    "name": "Borlez"
  },
  {
    "zip": "4317",
    "name": "Celles"
  },
  {
    "zip": "4317",
    "name": "Faimes"
  },
  {
    "zip": "4317",
    "name": "Les Waleffes"
  },
  {
    "zip": "4317",
    "name": "Viemme"
  },
  {
    "zip": "4340",
    "name": "Awans"
  },
  {
    "zip": "4340",
    "name": "Fooz"
  },
  {
    "zip": "4340",
    "name": "Oth\u00e9e"
  },
  {
    "zip": "4340",
    "name": "Villers-L'ev\u00eaque"
  },
  {
    "zip": "4342",
    "name": "Hognoul"
  },
  {
    "zip": "4347",
    "name": "Fexhe-Le-Haut-Clocher"
  },
  {
    "zip": "4347",
    "name": "Freloux"
  },
  {
    "zip": "4347",
    "name": "Noville"
  },
  {
    "zip": "4347",
    "name": "Roloux"
  },
  {
    "zip": "4347",
    "name": "Voroux-Goreux"
  },
  {
    "zip": "4350",
    "name": "Lamine"
  },
  {
    "zip": "4350",
    "name": "Momalle"
  },
  {
    "zip": "4350",
    "name": "Pousset"
  },
  {
    "zip": "4350",
    "name": "Remicourt"
  },
  {
    "zip": "4351",
    "name": "Hodeige"
  },
  {
    "zip": "4357",
    "name": "Donceel"
  },
  {
    "zip": "4357",
    "name": "Haneffe"
  },
  {
    "zip": "4357",
    "name": "Jeneffe"
  },
  {
    "zip": "4357",
    "name": "Limont"
  },
  {
    "zip": "4360",
    "name": "Bergilers"
  },
  {
    "zip": "4360",
    "name": "Grandville"
  },
  {
    "zip": "4360",
    "name": "Lens-Sur-Geer"
  },
  {
    "zip": "4360",
    "name": "Oreye"
  },
  {
    "zip": "4360",
    "name": "Otrange"
  },
  {
    "zip": "4367",
    "name": "Crisn\u00e9e"
  },
  {
    "zip": "4367",
    "name": "Fize-Le-Marsal"
  },
  {
    "zip": "4367",
    "name": "Kemexhe"
  },
  {
    "zip": "4367",
    "name": "Odeur"
  },
  {
    "zip": "4367",
    "name": "Thys"
  },
  {
    "zip": "4400",
    "name": "Awirs"
  },
  {
    "zip": "4400",
    "name": "Chokier"
  },
  {
    "zip": "4400",
    "name": "Fl\u00e9malle"
  },
  {
    "zip": "4400",
    "name": "Fl\u00e9malle-Grande"
  },
  {
    "zip": "4400",
    "name": "Fl\u00e9malle-Haute"
  },
  {
    "zip": "4400",
    "name": "Ivoz-Ramet"
  },
  {
    "zip": "4400",
    "name": "Mons-Lez-Li\u00e8ge"
  },
  {
    "zip": "4420",
    "name": "Montegn\u00e9e"
  },
  {
    "zip": "4420",
    "name": "Saint-Nicolas"
  },
  {
    "zip": "4420",
    "name": "Tilleur"
  },
  {
    "zip": "4430",
    "name": "Ans"
  },
  {
    "zip": "4431",
    "name": "Loncin"
  },
  {
    "zip": "4432",
    "name": "Alleur"
  },
  {
    "zip": "4432",
    "name": "Xhendremael"
  },
  {
    "zip": "4450",
    "name": "Juprelle"
  },
  {
    "zip": "4450",
    "name": "Lantin"
  },
  {
    "zip": "4450",
    "name": "Slins"
  },
  {
    "zip": "4451",
    "name": "Voroux-Lez-Liers"
  },
  {
    "zip": "4452",
    "name": "Paifve"
  },
  {
    "zip": "4452",
    "name": "Wihogne"
  },
  {
    "zip": "4453",
    "name": "Villers-Saint-Sim\u00e9on"
  },
  {
    "zip": "4458",
    "name": "Fexhe-Slins"
  },
  {
    "zip": "4460",
    "name": "Bierset"
  },
  {
    "zip": "4460",
    "name": "Gr\u00e2ce-Berleur"
  },
  {
    "zip": "4460",
    "name": "Gr\u00e2ce-Hollogne"
  },
  {
    "zip": "4460",
    "name": "Hollogne-Aux-Pierres"
  },
  {
    "zip": "4460",
    "name": "Horion-Hoz\u00e9mont"
  },
  {
    "zip": "4460",
    "name": "Velroux"
  },
  {
    "zip": "4470",
    "name": "Saint-Georges-Sur-Meuse"
  },
  {
    "zip": "4480",
    "name": "Clermont-Sous-Huy"
  },
  {
    "zip": "4480",
    "name": "Ehein"
  },
  {
    "zip": "4480",
    "name": "Engis"
  },
  {
    "zip": "4480",
    "name": "Hermalle-Sous-Huy"
  },
  {
    "zip": "4500",
    "name": "Ben-Ahin"
  },
  {
    "zip": "4500",
    "name": "Huy"
  },
  {
    "zip": "4500",
    "name": "Tihange"
  },
  {
    "zip": "4520",
    "name": "Antheit"
  },
  {
    "zip": "4520",
    "name": "Bas-Oha"
  },
  {
    "zip": "4520",
    "name": "Huccorgne"
  },
  {
    "zip": "4520",
    "name": "Moha"
  },
  {
    "zip": "4520",
    "name": "Vinalmont"
  },
  {
    "zip": "4520",
    "name": "Wanze"
  },
  {
    "zip": "4530",
    "name": "Fize-Fontaine"
  },
  {
    "zip": "4530",
    "name": "Vaux-Et-Borset"
  },
  {
    "zip": "4530",
    "name": "Vieux-Waleffe"
  },
  {
    "zip": "4530",
    "name": "Villers-Le-Bouillet"
  },
  {
    "zip": "4530",
    "name": "Warnant-Dreye"
  },
  {
    "zip": "4537",
    "name": "Bodegn\u00e9e"
  },
  {
    "zip": "4537",
    "name": "Chapon-Seraing"
  },
  {
    "zip": "4537",
    "name": "Seraing-Le-Ch\u00e2teau"
  },
  {
    "zip": "4537",
    "name": "Verlaine"
  },
  {
    "zip": "4540",
    "name": "Amay"
  },
  {
    "zip": "4540",
    "name": "Ampsin"
  },
  {
    "zip": "4540",
    "name": "Fl\u00f4ne"
  },
  {
    "zip": "4540",
    "name": "Jehay"
  },
  {
    "zip": "4540",
    "name": "Ombret"
  },
  {
    "zip": "4550",
    "name": "Nandrin"
  },
  {
    "zip": "4550",
    "name": "Saint-S\u00e9verin"
  },
  {
    "zip": "4550",
    "name": "Villers-Le-Temple"
  },
  {
    "zip": "4550",
    "name": "Yern\u00e9e-Fraineux"
  },
  {
    "zip": "4557",
    "name": "Ab\u00e9e"
  },
  {
    "zip": "4557",
    "name": "Fraiture"
  },
  {
    "zip": "4557",
    "name": "Ramelot"
  },
  {
    "zip": "4557",
    "name": "Seny"
  },
  {
    "zip": "4557",
    "name": "Soheit-Tinlot"
  },
  {
    "zip": "4557",
    "name": "Tinlot"
  },
  {
    "zip": "4560",
    "name": "Bois-Et-Borsu"
  },
  {
    "zip": "4560",
    "name": "Clavier"
  },
  {
    "zip": "4560",
    "name": "Les Avins"
  },
  {
    "zip": "4560",
    "name": "Ocquier"
  },
  {
    "zip": "4560",
    "name": "Pailhe"
  },
  {
    "zip": "4560",
    "name": "Terwagne"
  },
  {
    "zip": "4570",
    "name": "Marchin"
  },
  {
    "zip": "4570",
    "name": "Vyle-Et-Tharoul"
  },
  {
    "zip": "4577",
    "name": "Modave"
  },
  {
    "zip": "4577",
    "name": "Outrelouxhe"
  },
  {
    "zip": "4577",
    "name": "Str\u00e9e-Lez-Huy"
  },
  {
    "zip": "4577",
    "name": "Vierset-Barse"
  },
  {
    "zip": "4590",
    "name": "Ellemelle"
  },
  {
    "zip": "4590",
    "name": "Ouffet"
  },
  {
    "zip": "4590",
    "name": "Warz\u00e9e"
  },
  {
    "zip": "4600",
    "name": "Lanaye"
  },
  {
    "zip": "4600",
    "name": "Lixhe"
  },
  {
    "zip": "4600",
    "name": "Richelle"
  },
  {
    "zip": "4600",
    "name": "Vis\u00e9"
  },
  {
    "zip": "4601",
    "name": "Argenteau"
  },
  {
    "zip": "4602",
    "name": "Cheratte"
  },
  {
    "zip": "4606",
    "name": "Saint-Andr\u00e9"
  },
  {
    "zip": "4607",
    "name": "Berneau"
  },
  {
    "zip": "4607",
    "name": "Bombaye"
  },
  {
    "zip": "4607",
    "name": "Dalhem"
  },
  {
    "zip": "4607",
    "name": "Feneur"
  },
  {
    "zip": "4607",
    "name": "Mortroux"
  },
  {
    "zip": "4608",
    "name": "Neufch\u00e2teau"
  },
  {
    "zip": "4608",
    "name": "Warsage"
  },
  {
    "zip": "4610",
    "name": "Bellaire"
  },
  {
    "zip": "4610",
    "name": "Beyne-Heusay"
  },
  {
    "zip": "4610",
    "name": "Queue-Du-Bois"
  },
  {
    "zip": "4620",
    "name": "Fl\u00e9ron"
  },
  {
    "zip": "4621",
    "name": "Retinne"
  },
  {
    "zip": "4623",
    "name": "Magn\u00e9e"
  },
  {
    "zip": "4624",
    "name": "Roms\u00e9e"
  },
  {
    "zip": "4630",
    "name": "Ayeneux"
  },
  {
    "zip": "4630",
    "name": "Micheroux"
  },
  {
    "zip": "4630",
    "name": "Soumagne"
  },
  {
    "zip": "4630",
    "name": "Tign\u00e9e"
  },
  {
    "zip": "4631",
    "name": "Evegn\u00e9e"
  },
  {
    "zip": "4632",
    "name": "C\u00e9rexhe-Heuseux"
  },
  {
    "zip": "4633",
    "name": "Melen"
  },
  {
    "zip": "4650",
    "name": "Chaineux"
  },
  {
    "zip": "4650",
    "name": "Grand-Rechain"
  },
  {
    "zip": "4650",
    "name": "Herve"
  },
  {
    "zip": "4650",
    "name": "Jul\u00e9mont"
  },
  {
    "zip": "4651",
    "name": "Battice"
  },
  {
    "zip": "4652",
    "name": "Xhendelesse"
  },
  {
    "zip": "4653",
    "name": "Bolland"
  },
  {
    "zip": "4654",
    "name": "Charneux"
  },
  {
    "zip": "4670",
    "name": "Bl\u00e9gny"
  },
  {
    "zip": "4670",
    "name": "Mortier"
  },
  {
    "zip": "4670",
    "name": "Trembleur"
  },
  {
    "zip": "4671",
    "name": "Barchon"
  },
  {
    "zip": "4671",
    "name": "Housse"
  },
  {
    "zip": "4671",
    "name": "Saive"
  },
  {
    "zip": "4672",
    "name": "Saint-Remy"
  },
  {
    "zip": "4680",
    "name": "Herm\u00e9e"
  },
  {
    "zip": "4680",
    "name": "Oupeye"
  },
  {
    "zip": "4681",
    "name": "Hermalle-Sous-Argenteau"
  },
  {
    "zip": "4682",
    "name": "Heure-Le-Romain"
  },
  {
    "zip": "4682",
    "name": "Houtain-Saint-Sim\u00e9on"
  },
  {
    "zip": "4683",
    "name": "Vivegnis"
  },
  {
    "zip": "4684",
    "name": "Haccourt"
  },
  {
    "zip": "4690",
    "name": "Bassenge"
  },
  {
    "zip": "4690",
    "name": "Boirs"
  },
  {
    "zip": "4690",
    "name": "Eben-Emael"
  },
  {
    "zip": "4690",
    "name": "Glons"
  },
  {
    "zip": "4690",
    "name": "Roclenge-Sur-Geer"
  },
  {
    "zip": "4690",
    "name": "Wonck"
  },
  {
    "zip": "4700",
    "name": "Eupen"
  },
  {
    "zip": "4701",
    "name": "Kettenis"
  },
  {
    "zip": "4710",
    "name": "Lontzen"
  },
  {
    "zip": "4711",
    "name": "Walhorn"
  },
  {
    "zip": "4720",
    "name": "La Calamine"
  },
  {
    "zip": "4721",
    "name": "Neu-Moresnet"
  },
  {
    "zip": "4728",
    "name": "Hergenrath"
  },
  {
    "zip": "4730",
    "name": "Hauset"
  },
  {
    "zip": "4730",
    "name": "Raeren"
  },
  {
    "zip": "4731",
    "name": "Eynatten"
  },
  {
    "zip": "4750",
    "name": "Butgenbach"
  },
  {
    "zip": "4750",
    "name": "Elsenborn"
  },
  {
    "zip": "4760",
    "name": "Bullange"
  },
  {
    "zip": "4760",
    "name": "Manderfeld"
  },
  {
    "zip": "4761",
    "name": "Rocherath"
  },
  {
    "zip": "4770",
    "name": "Ambl\u00e8ve"
  },
  {
    "zip": "4770",
    "name": "Meyerode"
  },
  {
    "zip": "4771",
    "name": "Heppenbach"
  },
  {
    "zip": "4780",
    "name": "Recht"
  },
  {
    "zip": "4780",
    "name": "Saint-Vith"
  },
  {
    "zip": "4782",
    "name": "Schoenberg"
  },
  {
    "zip": "4783",
    "name": "Lommersweiler"
  },
  {
    "zip": "4784",
    "name": "Crombach"
  },
  {
    "zip": "4790",
    "name": "Burg-Reuland"
  },
  {
    "zip": "4790",
    "name": "Reuland"
  },
  {
    "zip": "4791",
    "name": "Thommen"
  },
  {
    "zip": "4800",
    "name": "Ensival"
  },
  {
    "zip": "4800",
    "name": "Lambermont"
  },
  {
    "zip": "4800",
    "name": "Petit-Rechain"
  },
  {
    "zip": "4800",
    "name": "Polleur"
  },
  {
    "zip": "4800",
    "name": "Verviers"
  },
  {
    "zip": "4801",
    "name": "Stembert"
  },
  {
    "zip": "4802",
    "name": "Heusy"
  },
  {
    "zip": "4820",
    "name": "Dison"
  },
  {
    "zip": "4821",
    "name": "Andrimont"
  },
  {
    "zip": "4830",
    "name": "Limbourg"
  },
  {
    "zip": "4831",
    "name": "Bilstain"
  },
  {
    "zip": "4834",
    "name": "Go\u00e9"
  },
  {
    "zip": "4837",
    "name": "Baelen"
  },
  {
    "zip": "4837",
    "name": "Membach"
  },
  {
    "zip": "4840",
    "name": "Welkenraedt"
  },
  {
    "zip": "4841",
    "name": "Henri-Chapelle"
  },
  {
    "zip": "4845",
    "name": "Jalhay"
  },
  {
    "zip": "4845",
    "name": "Sart-Lez-Spa"
  },
  {
    "zip": "4850",
    "name": "Montzen"
  },
  {
    "zip": "4850",
    "name": "Moresnet"
  },
  {
    "zip": "4850",
    "name": "Plombi\u00e8res"
  },
  {
    "zip": "4851",
    "name": "Gemmenich"
  },
  {
    "zip": "4851",
    "name": "Sippenaeken"
  },
  {
    "zip": "4852",
    "name": "Hombourg"
  },
  {
    "zip": "4860",
    "name": "Cornesse"
  },
  {
    "zip": "4860",
    "name": "Pepinster"
  },
  {
    "zip": "4860",
    "name": "Wegnez"
  },
  {
    "zip": "4861",
    "name": "Soiron"
  },
  {
    "zip": "4870",
    "name": "For\u00eat"
  },
  {
    "zip": "4870",
    "name": "Fraipont"
  },
  {
    "zip": "4870",
    "name": "Nessonvaux"
  },
  {
    "zip": "4870",
    "name": "Trooz"
  },
  {
    "zip": "4877",
    "name": "Olne"
  },
  {
    "zip": "4880",
    "name": "Aubel"
  },
  {
    "zip": "4890",
    "name": "Clermont"
  },
  {
    "zip": "4890",
    "name": "Thimister"
  },
  {
    "zip": "4890",
    "name": "Thimister-Clermont"
  },
  {
    "zip": "4900",
    "name": "Spa"
  },
  {
    "zip": "4910",
    "name": "La Reid"
  },
  {
    "zip": "4910",
    "name": "Polleur"
  },
  {
    "zip": "4910",
    "name": "Theux"
  },
  {
    "zip": "4920",
    "name": "Aywaille"
  },
  {
    "zip": "4920",
    "name": "Ernonheid"
  },
  {
    "zip": "4920",
    "name": "Harz\u00e9"
  },
  {
    "zip": "4920",
    "name": "Louveign\u00e9"
  },
  {
    "zip": "4950",
    "name": "Faymonville"
  },
  {
    "zip": "4950",
    "name": "Robertville"
  },
  {
    "zip": "4950",
    "name": "Sourbrodt"
  },
  {
    "zip": "4950",
    "name": "Waimes"
  },
  {
    "zip": "4960",
    "name": "Beverc\u00e9"
  },
  {
    "zip": "4960",
    "name": "Malmedy"
  },
  {
    "zip": "4970",
    "name": "Francorchamps"
  },
  {
    "zip": "4970",
    "name": "Stavelot"
  },
  {
    "zip": "4980",
    "name": "Fosse"
  },
  {
    "zip": "4980",
    "name": "Trois-Ponts"
  },
  {
    "zip": "4980",
    "name": "Wanne"
  },
  {
    "zip": "4983",
    "name": "Basse-Bodeux"
  },
  {
    "zip": "4987",
    "name": "Chevron"
  },
  {
    "zip": "4987",
    "name": "La Gleize"
  },
  {
    "zip": "4987",
    "name": "Lorc\u00e9"
  },
  {
    "zip": "4987",
    "name": "Rahier"
  },
  {
    "zip": "4987",
    "name": "Stoumont"
  },
  {
    "zip": "4990",
    "name": "Arbrefontaine"
  },
  {
    "zip": "4990",
    "name": "Bra"
  },
  {
    "zip": "4990",
    "name": "Lierneux"
  },
  {
    "zip": "5000",
    "name": "Beez"
  },
  {
    "zip": "5000",
    "name": "Namur"
  },
  {
    "zip": "5001",
    "name": "Belgrade"
  },
  {
    "zip": "5002",
    "name": "Saint-Servais"
  },
  {
    "zip": "5003",
    "name": "Saint-Marc"
  },
  {
    "zip": "5004",
    "name": "Bouge"
  },
  {
    "zip": "5020",
    "name": "Champion"
  },
  {
    "zip": "5020",
    "name": "Daussoulx"
  },
  {
    "zip": "5020",
    "name": "Flawinne"
  },
  {
    "zip": "5020",
    "name": "Malonne"
  },
  {
    "zip": "5020",
    "name": "Suarl\u00e9e"
  },
  {
    "zip": "5020",
    "name": "Temploux"
  },
  {
    "zip": "5020",
    "name": "Vedrin"
  },
  {
    "zip": "5021",
    "name": "Boninne"
  },
  {
    "zip": "5022",
    "name": "Cognel\u00e9e"
  },
  {
    "zip": "5024",
    "name": "Gelbress\u00e9e"
  },
  {
    "zip": "5024",
    "name": "Marche-Les-Dames"
  },
  {
    "zip": "5030",
    "name": "Beuzet"
  },
  {
    "zip": "5030",
    "name": "Ernage"
  },
  {
    "zip": "5030",
    "name": "Gembloux"
  },
  {
    "zip": "5030",
    "name": "Grand-Manil"
  },
  {
    "zip": "5030",
    "name": "Lonz\u00e9e"
  },
  {
    "zip": "5030",
    "name": "Sauveni\u00e8re"
  },
  {
    "zip": "5031",
    "name": "Grand-Leez"
  },
  {
    "zip": "5032",
    "name": "Bossi\u00e8re"
  },
  {
    "zip": "5032",
    "name": "Bothey"
  },
  {
    "zip": "5032",
    "name": "Corroy-Le-Ch\u00e2teau"
  },
  {
    "zip": "5032",
    "name": "Isnes"
  },
  {
    "zip": "5032",
    "name": "Mazy"
  },
  {
    "zip": "5060",
    "name": "Arsimont"
  },
  {
    "zip": "5060",
    "name": "Auvelais"
  },
  {
    "zip": "5060",
    "name": "Falisolle"
  },
  {
    "zip": "5060",
    "name": "Keumi\u00e9e"
  },
  {
    "zip": "5060",
    "name": "Moignel\u00e9e"
  },
  {
    "zip": "5060",
    "name": "Sambreville"
  },
  {
    "zip": "5060",
    "name": "Tamines"
  },
  {
    "zip": "5060",
    "name": "Velaine-Sur-Sambre"
  },
  {
    "zip": "5070",
    "name": "Aisemont"
  },
  {
    "zip": "5070",
    "name": "Fosses-La-Ville"
  },
  {
    "zip": "5070",
    "name": "Le Roux"
  },
  {
    "zip": "5070",
    "name": "Sart-Eustache"
  },
  {
    "zip": "5070",
    "name": "Sart-Saint-Laurent"
  },
  {
    "zip": "5070",
    "name": "Vitrival"
  },
  {
    "zip": "5080",
    "name": "Emines"
  },
  {
    "zip": "5080",
    "name": "La Bruy\u00e8re"
  },
  {
    "zip": "5080",
    "name": "Rhisnes"
  },
  {
    "zip": "5080",
    "name": "Villers-Lez-Heest"
  },
  {
    "zip": "5080",
    "name": "Warisoulx"
  },
  {
    "zip": "5081",
    "name": "Bovesse"
  },
  {
    "zip": "5081",
    "name": "Meux"
  },
  {
    "zip": "5100",
    "name": "Dave"
  },
  {
    "zip": "5100",
    "name": "Jambes"
  },
  {
    "zip": "5100",
    "name": "Naninne"
  },
  {
    "zip": "5100",
    "name": "W\u00e9pion"
  },
  {
    "zip": "5100",
    "name": "Wierde"
  },
  {
    "zip": "5101",
    "name": "Erpent"
  },
  {
    "zip": "5101",
    "name": "Lives-Sur-Meuse"
  },
  {
    "zip": "5101",
    "name": "Loyers"
  },
  {
    "zip": "5140",
    "name": "Boign\u00e9e"
  },
  {
    "zip": "5140",
    "name": "Ligny"
  },
  {
    "zip": "5140",
    "name": "Sombreffe"
  },
  {
    "zip": "5140",
    "name": "Tongrinne"
  },
  {
    "zip": "5150",
    "name": "Floreffe"
  },
  {
    "zip": "5150",
    "name": "Floriffoux"
  },
  {
    "zip": "5150",
    "name": "Frani\u00e8re"
  },
  {
    "zip": "5150",
    "name": "Soye"
  },
  {
    "zip": "5170",
    "name": "Arbre"
  },
  {
    "zip": "5170",
    "name": "Bois-De-Villers"
  },
  {
    "zip": "5170",
    "name": "Lesve"
  },
  {
    "zip": "5170",
    "name": "Lustin"
  },
  {
    "zip": "5170",
    "name": "Profondeville"
  },
  {
    "zip": "5170",
    "name": "Rivi\u00e8re"
  },
  {
    "zip": "5190",
    "name": "Bal\u00e2tre"
  },
  {
    "zip": "5190",
    "name": "Ham-Sur-Sambre"
  },
  {
    "zip": "5190",
    "name": "Jemeppe-Sur-Sambre"
  },
  {
    "zip": "5190",
    "name": "Mornimont"
  },
  {
    "zip": "5190",
    "name": "Moustier-Sur-Sambre"
  },
  {
    "zip": "5190",
    "name": "Onoz"
  },
  {
    "zip": "5190",
    "name": "Saint-Martin"
  },
  {
    "zip": "5190",
    "name": "Spy"
  },
  {
    "zip": "5300",
    "name": "Andenne"
  },
  {
    "zip": "5300",
    "name": "Bonneville"
  },
  {
    "zip": "5300",
    "name": "Coutisse"
  },
  {
    "zip": "5300",
    "name": "Landenne"
  },
  {
    "zip": "5300",
    "name": "Maizeret"
  },
  {
    "zip": "5300",
    "name": "Nam\u00eache"
  },
  {
    "zip": "5300",
    "name": "Sclayn"
  },
  {
    "zip": "5300",
    "name": "Seilles"
  },
  {
    "zip": "5300",
    "name": "Thon"
  },
  {
    "zip": "5300",
    "name": "Vezin"
  },
  {
    "zip": "5310",
    "name": "Aische-En-Refail"
  },
  {
    "zip": "5310",
    "name": "Bolinne"
  },
  {
    "zip": "5310",
    "name": "Boneffe"
  },
  {
    "zip": "5310",
    "name": "Branchon"
  },
  {
    "zip": "5310",
    "name": "Dhuy"
  },
  {
    "zip": "5310",
    "name": "Eghez\u00e9e"
  },
  {
    "zip": "5310",
    "name": "Hanret"
  },
  {
    "zip": "5310",
    "name": "Leuze"
  },
  {
    "zip": "5310",
    "name": "Liernu"
  },
  {
    "zip": "5310",
    "name": "Longchamps"
  },
  {
    "zip": "5310",
    "name": "Mehaigne"
  },
  {
    "zip": "5310",
    "name": "Noville-Sur-M\u00e9haigne"
  },
  {
    "zip": "5310",
    "name": "Saint-Germain"
  },
  {
    "zip": "5310",
    "name": "Taviers"
  },
  {
    "zip": "5310",
    "name": "Upigny"
  },
  {
    "zip": "5310",
    "name": "Waret-La-Chauss\u00e9e"
  },
  {
    "zip": "5330",
    "name": "Assesse"
  },
  {
    "zip": "5330",
    "name": "Maillen"
  },
  {
    "zip": "5330",
    "name": "Sart-Bernard"
  },
  {
    "zip": "5332",
    "name": "Crupet"
  },
  {
    "zip": "5333",
    "name": "Sorinne-La-Longue"
  },
  {
    "zip": "5334",
    "name": "Flor\u00e9e"
  },
  {
    "zip": "5336",
    "name": "Courri\u00e8re"
  },
  {
    "zip": "5340",
    "name": "Faulx-Les-Tombes"
  },
  {
    "zip": "5340",
    "name": "Gesves"
  },
  {
    "zip": "5340",
    "name": "Haltinne"
  },
  {
    "zip": "5340",
    "name": "Mozet"
  },
  {
    "zip": "5340",
    "name": "Sor\u00e9e"
  },
  {
    "zip": "5350",
    "name": "Evelette"
  },
  {
    "zip": "5350",
    "name": "Ohey"
  },
  {
    "zip": "5351",
    "name": "Haillot"
  },
  {
    "zip": "5353",
    "name": "Goesnes"
  },
  {
    "zip": "5354",
    "name": "Jallet"
  },
  {
    "zip": "5360",
    "name": "Hamois"
  },
  {
    "zip": "5360",
    "name": "Natoye"
  },
  {
    "zip": "5361",
    "name": "Mohiville"
  },
  {
    "zip": "5361",
    "name": "Scy"
  },
  {
    "zip": "5362",
    "name": "Achet"
  },
  {
    "zip": "5363",
    "name": "Emptinne"
  },
  {
    "zip": "5364",
    "name": "Schaltin"
  },
  {
    "zip": "5370",
    "name": "Barvaux-Condroz"
  },
  {
    "zip": "5370",
    "name": "Flostoy"
  },
  {
    "zip": "5370",
    "name": "Havelange"
  },
  {
    "zip": "5370",
    "name": "Jeneffe"
  },
  {
    "zip": "5370",
    "name": "Porcheresse"
  },
  {
    "zip": "5370",
    "name": "Verl\u00e9e"
  },
  {
    "zip": "5372",
    "name": "M\u00e9an"
  },
  {
    "zip": "5374",
    "name": "Maffe"
  },
  {
    "zip": "5376",
    "name": "Mi\u00e9cret"
  },
  {
    "zip": "5377",
    "name": "Baillonville"
  },
  {
    "zip": "5377",
    "name": "Bonsin"
  },
  {
    "zip": "5377",
    "name": "Heure"
  },
  {
    "zip": "5377",
    "name": "Hogne"
  },
  {
    "zip": "5377",
    "name": "Nettinne"
  },
  {
    "zip": "5377",
    "name": "Noiseux"
  },
  {
    "zip": "5377",
    "name": "Sinsin"
  },
  {
    "zip": "5377",
    "name": "Somme-Leuze"
  },
  {
    "zip": "5377",
    "name": "Waillet"
  },
  {
    "zip": "5380",
    "name": "Bierwart"
  },
  {
    "zip": "5380",
    "name": "Cortil-Wodon"
  },
  {
    "zip": "5380",
    "name": "Fernelmont"
  },
  {
    "zip": "5380",
    "name": "Forville"
  },
  {
    "zip": "5380",
    "name": "Franc-Waret"
  },
  {
    "zip": "5380",
    "name": "Hemptinne"
  },
  {
    "zip": "5380",
    "name": "Hingeon"
  },
  {
    "zip": "5380",
    "name": "Marchovelette"
  },
  {
    "zip": "5380",
    "name": "Noville-Les-Bois"
  },
  {
    "zip": "5380",
    "name": "Pontillas"
  },
  {
    "zip": "5380",
    "name": "Tillier"
  },
  {
    "zip": "5500",
    "name": "Anseremme"
  },
  {
    "zip": "5500",
    "name": "Bouvignes-Sur-Meuse"
  },
  {
    "zip": "5500",
    "name": "Dinant"
  },
  {
    "zip": "5500",
    "name": "Dr\u00e9hance"
  },
  {
    "zip": "5500",
    "name": "Falmagne"
  },
  {
    "zip": "5500",
    "name": "Falmignoul"
  },
  {
    "zip": "5500",
    "name": "Furfooz"
  },
  {
    "zip": "5501",
    "name": "Lisogne"
  },
  {
    "zip": "5502",
    "name": "Thynes"
  },
  {
    "zip": "5503",
    "name": "Sorinnes"
  },
  {
    "zip": "5504",
    "name": "Foy-Notre-Dame"
  },
  {
    "zip": "5520",
    "name": "Anth\u00e9e"
  },
  {
    "zip": "5520",
    "name": "Onhaye"
  },
  {
    "zip": "5521",
    "name": "Serville"
  },
  {
    "zip": "5522",
    "name": "Falaen"
  },
  {
    "zip": "5523",
    "name": "Sommi\u00e8re"
  },
  {
    "zip": "5523",
    "name": "Weillen"
  },
  {
    "zip": "5524",
    "name": "Gerin"
  },
  {
    "zip": "5530",
    "name": "Dorinne"
  },
  {
    "zip": "5530",
    "name": "Durnal"
  },
  {
    "zip": "5530",
    "name": "Evrehailles"
  },
  {
    "zip": "5530",
    "name": "Godinne"
  },
  {
    "zip": "5530",
    "name": "Houx"
  },
  {
    "zip": "5530",
    "name": "Mont"
  },
  {
    "zip": "5530",
    "name": "Purnode"
  },
  {
    "zip": "5530",
    "name": "Spontin"
  },
  {
    "zip": "5530",
    "name": "Yvoir"
  },
  {
    "zip": "5537",
    "name": "Anh\u00e9e"
  },
  {
    "zip": "5537",
    "name": "Annevoie-Rouillon"
  },
  {
    "zip": "5537",
    "name": "Bioul"
  },
  {
    "zip": "5537",
    "name": "Den\u00e9e"
  },
  {
    "zip": "5537",
    "name": "Haut-Le-Wastia"
  },
  {
    "zip": "5537",
    "name": "Sosoye"
  },
  {
    "zip": "5537",
    "name": "Warnant"
  },
  {
    "zip": "5540",
    "name": "Hasti\u00e8re"
  },
  {
    "zip": "5540",
    "name": "Hasti\u00e8re-Lavaux"
  },
  {
    "zip": "5540",
    "name": "Hermeton-Sur-Meuse"
  },
  {
    "zip": "5540",
    "name": "Waulsort"
  },
  {
    "zip": "5541",
    "name": "Hasti\u00e8re-Par-Del\u00e0"
  },
  {
    "zip": "5542",
    "name": "Blaimont"
  },
  {
    "zip": "5543",
    "name": "Heer"
  },
  {
    "zip": "5544",
    "name": "Agimont"
  },
  {
    "zip": "5550",
    "name": "Alle"
  },
  {
    "zip": "5550",
    "name": "Bagimont"
  },
  {
    "zip": "5550",
    "name": "Bohan"
  },
  {
    "zip": "5550",
    "name": "Chairi\u00e8re"
  },
  {
    "zip": "5550",
    "name": "Laforet"
  },
  {
    "zip": "5550",
    "name": "Membre"
  },
  {
    "zip": "5550",
    "name": "Mouzaive"
  },
  {
    "zip": "5550",
    "name": "Nafraiture"
  },
  {
    "zip": "5550",
    "name": "Orchimont"
  },
  {
    "zip": "5550",
    "name": "Pussemange"
  },
  {
    "zip": "5550",
    "name": "Sugny"
  },
  {
    "zip": "5550",
    "name": "Vresse-Sur-Semois"
  },
  {
    "zip": "5555",
    "name": "Baillamont"
  },
  {
    "zip": "5555",
    "name": "Bellefontaine"
  },
  {
    "zip": "5555",
    "name": "Bi\u00e8vre"
  },
  {
    "zip": "5555",
    "name": "Cornimont"
  },
  {
    "zip": "5555",
    "name": "Graide"
  },
  {
    "zip": "5555",
    "name": "Gros-Fays"
  },
  {
    "zip": "5555",
    "name": "Monceau-En-Ardenne"
  },
  {
    "zip": "5555",
    "name": "Naom\u00e9"
  },
  {
    "zip": "5555",
    "name": "Oizy"
  },
  {
    "zip": "5555",
    "name": "Petit-Fays"
  },
  {
    "zip": "5560",
    "name": "Ciergnon"
  },
  {
    "zip": "5560",
    "name": "Finnevaux"
  },
  {
    "zip": "5560",
    "name": "Houyet"
  },
  {
    "zip": "5560",
    "name": "Hulsonniaux"
  },
  {
    "zip": "5560",
    "name": "Mesnil-Eglise"
  },
  {
    "zip": "5560",
    "name": "Mesnil-Saint-Blaise"
  },
  {
    "zip": "5561",
    "name": "Celles"
  },
  {
    "zip": "5562",
    "name": "Custinne"
  },
  {
    "zip": "5563",
    "name": "Hour"
  },
  {
    "zip": "5564",
    "name": "Wanlin"
  },
  {
    "zip": "5570",
    "name": "Baronville"
  },
  {
    "zip": "5570",
    "name": "Beauraing"
  },
  {
    "zip": "5570",
    "name": "Dion"
  },
  {
    "zip": "5570",
    "name": "Felenne"
  },
  {
    "zip": "5570",
    "name": "Feschaux"
  },
  {
    "zip": "5570",
    "name": "Honnay"
  },
  {
    "zip": "5570",
    "name": "Javingue"
  },
  {
    "zip": "5570",
    "name": "Von\u00eache"
  },
  {
    "zip": "5570",
    "name": "Wancennes"
  },
  {
    "zip": "5570",
    "name": "Winenne"
  },
  {
    "zip": "5571",
    "name": "Wiesme"
  },
  {
    "zip": "5572",
    "name": "Focant"
  },
  {
    "zip": "5573",
    "name": "Martouzin-Neuville"
  },
  {
    "zip": "5574",
    "name": "Pondr\u00f4me"
  },
  {
    "zip": "5575",
    "name": "Bourseigne-Neuve"
  },
  {
    "zip": "5575",
    "name": "Bourseigne-Vieille"
  },
  {
    "zip": "5575",
    "name": "Gedinne"
  },
  {
    "zip": "5575",
    "name": "Houdremont"
  },
  {
    "zip": "5575",
    "name": "Louette-Saint-Denis"
  },
  {
    "zip": "5575",
    "name": "Louette-Saint-Pierre"
  },
  {
    "zip": "5575",
    "name": "Malvoisin"
  },
  {
    "zip": "5575",
    "name": "Patignies"
  },
  {
    "zip": "5575",
    "name": "Rienne"
  },
  {
    "zip": "5575",
    "name": "Sart-Custinne"
  },
  {
    "zip": "5575",
    "name": "Vencimont"
  },
  {
    "zip": "5575",
    "name": "Willerzie"
  },
  {
    "zip": "5576",
    "name": "Froidfontaine"
  },
  {
    "zip": "5580",
    "name": "Ave-Et-Auffe"
  },
  {
    "zip": "5580",
    "name": "Buissonville"
  },
  {
    "zip": "5580",
    "name": "Eprave"
  },
  {
    "zip": "5580",
    "name": "Han-Sur-Lesse"
  },
  {
    "zip": "5580",
    "name": "Jemelle"
  },
  {
    "zip": "5580",
    "name": "Lessive"
  },
  {
    "zip": "5580",
    "name": "Mont-Gauthier"
  },
  {
    "zip": "5580",
    "name": "Rochefort"
  },
  {
    "zip": "5580",
    "name": "Villers-Sur-Lesse"
  },
  {
    "zip": "5580",
    "name": "Wavreille"
  },
  {
    "zip": "5590",
    "name": "Ach\u00eane"
  },
  {
    "zip": "5590",
    "name": "Braibant"
  },
  {
    "zip": "5590",
    "name": "Chevetogne"
  },
  {
    "zip": "5590",
    "name": "Ciney"
  },
  {
    "zip": "5590",
    "name": "Conneux"
  },
  {
    "zip": "5590",
    "name": "Haversin"
  },
  {
    "zip": "5590",
    "name": "Leignon"
  },
  {
    "zip": "5590",
    "name": "Pessoux"
  },
  {
    "zip": "5590",
    "name": "Serinchamps"
  },
  {
    "zip": "5590",
    "name": "Sovet"
  },
  {
    "zip": "5600",
    "name": "Fagnolle"
  },
  {
    "zip": "5600",
    "name": "Franchimont"
  },
  {
    "zip": "5600",
    "name": "Jamagne"
  },
  {
    "zip": "5600",
    "name": "Jamiolle"
  },
  {
    "zip": "5600",
    "name": "Merlemont"
  },
  {
    "zip": "5600",
    "name": "Neuville"
  },
  {
    "zip": "5600",
    "name": "Omez\u00e9e"
  },
  {
    "zip": "5600",
    "name": "Philippeville"
  },
  {
    "zip": "5600",
    "name": "Roly"
  },
  {
    "zip": "5600",
    "name": "Romedenne"
  },
  {
    "zip": "5600",
    "name": "Samart"
  },
  {
    "zip": "5600",
    "name": "Sart-En-Fagne"
  },
  {
    "zip": "5600",
    "name": "Sautour"
  },
  {
    "zip": "5600",
    "name": "Surice"
  },
  {
    "zip": "5600",
    "name": "Villers-En-Fagne"
  },
  {
    "zip": "5600",
    "name": "Villers-Le-Gambon"
  },
  {
    "zip": "5600",
    "name": "Vodec\u00e9e"
  },
  {
    "zip": "5620",
    "name": "Corenne"
  },
  {
    "zip": "5620",
    "name": "Flavion"
  },
  {
    "zip": "5620",
    "name": "Florennes"
  },
  {
    "zip": "5620",
    "name": "Hemptinne-Lez-Florennes"
  },
  {
    "zip": "5620",
    "name": "Morville"
  },
  {
    "zip": "5620",
    "name": "Ros\u00e9e"
  },
  {
    "zip": "5620",
    "name": "Saint-Aubin"
  },
  {
    "zip": "5621",
    "name": "Hanzinelle"
  },
  {
    "zip": "5621",
    "name": "Hanzinne"
  },
  {
    "zip": "5621",
    "name": "Morialm\u00e9"
  },
  {
    "zip": "5630",
    "name": "Cerfontaine"
  },
  {
    "zip": "5630",
    "name": "Daussois"
  },
  {
    "zip": "5630",
    "name": "Senzeille"
  },
  {
    "zip": "5630",
    "name": "Silenrieux"
  },
  {
    "zip": "5630",
    "name": "Soumoy"
  },
  {
    "zip": "5630",
    "name": "Villers-Deux-Eglises"
  },
  {
    "zip": "5640",
    "name": "Biesme"
  },
  {
    "zip": "5640",
    "name": "Biesmer\u00e9e"
  },
  {
    "zip": "5640",
    "name": "Graux"
  },
  {
    "zip": "5640",
    "name": "Mettet"
  },
  {
    "zip": "5640",
    "name": "Oret"
  },
  {
    "zip": "5640",
    "name": "Saint-G\u00e9rard"
  },
  {
    "zip": "5641",
    "name": "Furnaux"
  },
  {
    "zip": "5644",
    "name": "Ermeton-Sur-Biert"
  },
  {
    "zip": "5646",
    "name": "Stave"
  },
  {
    "zip": "5650",
    "name": "Castillon"
  },
  {
    "zip": "5650",
    "name": "Chastr\u00e8s"
  },
  {
    "zip": "5650",
    "name": "Clermont"
  },
  {
    "zip": "5650",
    "name": "Fontenelle"
  },
  {
    "zip": "5650",
    "name": "Fraire"
  },
  {
    "zip": "5650",
    "name": "Pry"
  },
  {
    "zip": "5650",
    "name": "Vogen\u00e9e"
  },
  {
    "zip": "5650",
    "name": "Walcourt"
  },
  {
    "zip": "5650",
    "name": "Yves-Gomez\u00e9e"
  },
  {
    "zip": "5651",
    "name": "Berz\u00e9e"
  },
  {
    "zip": "5651",
    "name": "Gourdinne"
  },
  {
    "zip": "5651",
    "name": "Laneffe"
  },
  {
    "zip": "5651",
    "name": "Rogn\u00e9e"
  },
  {
    "zip": "5651",
    "name": "Somz\u00e9e"
  },
  {
    "zip": "5651",
    "name": "Tarcienne"
  },
  {
    "zip": "5651",
    "name": "Thy-Le-Ch\u00e2teau"
  },
  {
    "zip": "5660",
    "name": "Aublain"
  },
  {
    "zip": "5660",
    "name": "Boussu-En-Fagne"
  },
  {
    "zip": "5660",
    "name": "Br\u00fbly"
  },
  {
    "zip": "5660",
    "name": "Br\u00fbly-De-Pesche"
  },
  {
    "zip": "5660",
    "name": "Couvin"
  },
  {
    "zip": "5660",
    "name": "Cul-Des-Sarts"
  },
  {
    "zip": "5660",
    "name": "Dailly"
  },
  {
    "zip": "5660",
    "name": "Frasnes"
  },
  {
    "zip": "5660",
    "name": "Gonrieux"
  },
  {
    "zip": "5660",
    "name": "Mariembourg"
  },
  {
    "zip": "5660",
    "name": "Pesche"
  },
  {
    "zip": "5660",
    "name": "Petigny"
  },
  {
    "zip": "5660",
    "name": "Petite-Chapelle"
  },
  {
    "zip": "5660",
    "name": "Presgaux"
  },
  {
    "zip": "5670",
    "name": "Dourbes"
  },
  {
    "zip": "5670",
    "name": "Le Mesnil"
  },
  {
    "zip": "5670",
    "name": "Maz\u00e9e"
  },
  {
    "zip": "5670",
    "name": "Nismes"
  },
  {
    "zip": "5670",
    "name": "Oignies-En-Thi\u00e9rache"
  },
  {
    "zip": "5670",
    "name": "Olloy-Sur-Viroin"
  },
  {
    "zip": "5670",
    "name": "Treignes"
  },
  {
    "zip": "5670",
    "name": "Vierves-Sur-Viroin"
  },
  {
    "zip": "5670",
    "name": "Viroinval"
  },
  {
    "zip": "5680",
    "name": "Doische"
  },
  {
    "zip": "5680",
    "name": "Gimn\u00e9e"
  },
  {
    "zip": "5680",
    "name": "Gochen\u00e9e"
  },
  {
    "zip": "5680",
    "name": "Matagne-La-Grande"
  },
  {
    "zip": "5680",
    "name": "Matagne-La-Petite"
  },
  {
    "zip": "5680",
    "name": "Niverl\u00e9e"
  },
  {
    "zip": "5680",
    "name": "Romer\u00e9e"
  },
  {
    "zip": "5680",
    "name": "Soulme"
  },
  {
    "zip": "5680",
    "name": "Vaucelles"
  },
  {
    "zip": "5680",
    "name": "Vodel\u00e9e"
  },
  {
    "zip": "6000",
    "name": "Charleroi"
  },
  {
    "zip": "6001",
    "name": "Marcinelle"
  },
  {
    "zip": "6010",
    "name": "Couillet"
  },
  {
    "zip": "6020",
    "name": "Dampremy"
  },
  {
    "zip": "6030",
    "name": "Goutroux"
  },
  {
    "zip": "6030",
    "name": "Marchienne-Au-Pont"
  },
  {
    "zip": "6031",
    "name": "Monceau-Sur-Sambre"
  },
  {
    "zip": "6032",
    "name": "Mont-Sur-Marchienne"
  },
  {
    "zip": "6040",
    "name": "Jumet"
  },
  {
    "zip": "6041",
    "name": "Gosselies"
  },
  {
    "zip": "6042",
    "name": "Lodelinsart"
  },
  {
    "zip": "6043",
    "name": "Ransart"
  },
  {
    "zip": "6044",
    "name": "Roux"
  },
  {
    "zip": "6060",
    "name": "Gilly"
  },
  {
    "zip": "6061",
    "name": "Montignies-Sur-Sambre"
  },
  {
    "zip": "6110",
    "name": "Montigny-Le-Tilleul"
  },
  {
    "zip": "6111",
    "name": "Landelies"
  },
  {
    "zip": "6120",
    "name": "Cour-Sur-Heure"
  },
  {
    "zip": "6120",
    "name": "Ham-Sur-Heure"
  },
  {
    "zip": "6120",
    "name": "Jamioulx"
  },
  {
    "zip": "6120",
    "name": "Marbaix"
  },
  {
    "zip": "6120",
    "name": "Nalinnes"
  },
  {
    "zip": "6140",
    "name": "Fontaine-L'ev\u00eaque"
  },
  {
    "zip": "6141",
    "name": "Forchies-La-Marche"
  },
  {
    "zip": "6142",
    "name": "Leernes"
  },
  {
    "zip": "6150",
    "name": "Anderlues"
  },
  {
    "zip": "6180",
    "name": "Courcelles"
  },
  {
    "zip": "6181",
    "name": "Gouy-Lez-Pi\u00e9ton"
  },
  {
    "zip": "6182",
    "name": "Souvret"
  },
  {
    "zip": "6183",
    "name": "Trazegnies"
  },
  {
    "zip": "6200",
    "name": "Bouffioulx"
  },
  {
    "zip": "6200",
    "name": "Ch\u00e2telet"
  },
  {
    "zip": "6200",
    "name": "Ch\u00e2telineau"
  },
  {
    "zip": "6210",
    "name": "Frasnes-Lez-Gosselies"
  },
  {
    "zip": "6210",
    "name": "Les Bons Villers"
  },
  {
    "zip": "6210",
    "name": "R\u00e8ves"
  },
  {
    "zip": "6210",
    "name": "Villers-Perwin"
  },
  {
    "zip": "6210",
    "name": "Wayaux"
  },
  {
    "zip": "6211",
    "name": "Mellet"
  },
  {
    "zip": "6220",
    "name": "Fleurus"
  },
  {
    "zip": "6220",
    "name": "Heppignies"
  },
  {
    "zip": "6220",
    "name": "Lambusart"
  },
  {
    "zip": "6220",
    "name": "Wangenies"
  },
  {
    "zip": "6221",
    "name": "Saint-Amand"
  },
  {
    "zip": "6222",
    "name": "Brye"
  },
  {
    "zip": "6223",
    "name": "Wagnel\u00e9e"
  },
  {
    "zip": "6224",
    "name": "Wanferc\u00e9e-Baulet"
  },
  {
    "zip": "6230",
    "name": "Buzet"
  },
  {
    "zip": "6230",
    "name": "Obaix"
  },
  {
    "zip": "6230",
    "name": "Pont-\u00c0-Celles"
  },
  {
    "zip": "6230",
    "name": "Thim\u00e9on"
  },
  {
    "zip": "6230",
    "name": "Viesville"
  },
  {
    "zip": "6238",
    "name": "Liberchies"
  },
  {
    "zip": "6238",
    "name": "Luttre"
  },
  {
    "zip": "6240",
    "name": "Farciennes"
  },
  {
    "zip": "6240",
    "name": "Pironchamps"
  },
  {
    "zip": "6250",
    "name": "Aiseau"
  },
  {
    "zip": "6250",
    "name": "Aiseau-Presles"
  },
  {
    "zip": "6250",
    "name": "Pont-De-Loup"
  },
  {
    "zip": "6250",
    "name": "Presles"
  },
  {
    "zip": "6250",
    "name": "Roselies"
  },
  {
    "zip": "6280",
    "name": "Acoz"
  },
  {
    "zip": "6280",
    "name": "Gerpinnes"
  },
  {
    "zip": "6280",
    "name": "Gougnies"
  },
  {
    "zip": "6280",
    "name": "Joncret"
  },
  {
    "zip": "6280",
    "name": "Loverval"
  },
  {
    "zip": "6280",
    "name": "Villers-Poterie"
  },
  {
    "zip": "6440",
    "name": "Boussu-Lez-Walcourt"
  },
  {
    "zip": "6440",
    "name": "Fourbechies"
  },
  {
    "zip": "6440",
    "name": "Froidchapelle"
  },
  {
    "zip": "6440",
    "name": "Vergnies"
  },
  {
    "zip": "6441",
    "name": "Erpion"
  },
  {
    "zip": "6460",
    "name": "Baili\u00e8vre"
  },
  {
    "zip": "6460",
    "name": "Chimay"
  },
  {
    "zip": "6460",
    "name": "Robechies"
  },
  {
    "zip": "6460",
    "name": "Saint-Remy"
  },
  {
    "zip": "6460",
    "name": "Salles"
  },
  {
    "zip": "6460",
    "name": "Villers-La-Tour"
  },
  {
    "zip": "6461",
    "name": "Virelles"
  },
  {
    "zip": "6462",
    "name": "Vaulx-Lez-Chimay"
  },
  {
    "zip": "6463",
    "name": "Lompret"
  },
  {
    "zip": "6464",
    "name": "Baileux"
  },
  {
    "zip": "6464",
    "name": "Bourlers"
  },
  {
    "zip": "6464",
    "name": "Forges"
  },
  {
    "zip": "6464",
    "name": "L'escaill\u00e8re"
  },
  {
    "zip": "6464",
    "name": "Ri\u00e8zes"
  },
  {
    "zip": "6470",
    "name": "Grandrieu"
  },
  {
    "zip": "6470",
    "name": "Montbliart"
  },
  {
    "zip": "6470",
    "name": "Rance"
  },
  {
    "zip": "6470",
    "name": "Sautin"
  },
  {
    "zip": "6470",
    "name": "Sivry"
  },
  {
    "zip": "6470",
    "name": "Sivry-Rance"
  },
  {
    "zip": "6500",
    "name": "Barben\u00e7on"
  },
  {
    "zip": "6500",
    "name": "Beaumont"
  },
  {
    "zip": "6500",
    "name": "Leugnies"
  },
  {
    "zip": "6500",
    "name": "Leval-Chaudeville"
  },
  {
    "zip": "6500",
    "name": "Renlies"
  },
  {
    "zip": "6500",
    "name": "Solre-Saint-G\u00e9ry"
  },
  {
    "zip": "6500",
    "name": "Thirimont"
  },
  {
    "zip": "6511",
    "name": "Str\u00e9e"
  },
  {
    "zip": "6530",
    "name": "Leers-Et-Fosteau"
  },
  {
    "zip": "6530",
    "name": "Thuin"
  },
  {
    "zip": "6531",
    "name": "Biesme-Sous-Thuin"
  },
  {
    "zip": "6532",
    "name": "Ragnies"
  },
  {
    "zip": "6533",
    "name": "Bierc\u00e9e"
  },
  {
    "zip": "6534",
    "name": "Goz\u00e9e"
  },
  {
    "zip": "6536",
    "name": "Donstiennes"
  },
  {
    "zip": "6536",
    "name": "Thuillies"
  },
  {
    "zip": "6540",
    "name": "Lobbes"
  },
  {
    "zip": "6540",
    "name": "Mont-Sainte-Genevi\u00e8ve"
  },
  {
    "zip": "6542",
    "name": "Sars-La-Buissi\u00e8re"
  },
  {
    "zip": "6543",
    "name": "Bienne-Lez-Happart"
  },
  {
    "zip": "6560",
    "name": "Bersillies-L'abbaye"
  },
  {
    "zip": "6560",
    "name": "Erquelinnes"
  },
  {
    "zip": "6560",
    "name": "Grand-Reng"
  },
  {
    "zip": "6560",
    "name": "Hantes-Wih\u00e9ries"
  },
  {
    "zip": "6560",
    "name": "Montignies-Saint-Christophe"
  },
  {
    "zip": "6560",
    "name": "Solre-Sur-Sambre"
  },
  {
    "zip": "6567",
    "name": "Fontaine-Valmont"
  },
  {
    "zip": "6567",
    "name": "Labuissi\u00e8re"
  },
  {
    "zip": "6567",
    "name": "Merbes-Le-Ch\u00e2teau"
  },
  {
    "zip": "6567",
    "name": "Merbes-Sainte-Marie"
  },
  {
    "zip": "6590",
    "name": "Momignies"
  },
  {
    "zip": "6591",
    "name": "Macon"
  },
  {
    "zip": "6592",
    "name": "Monceau-Imbrechies"
  },
  {
    "zip": "6593",
    "name": "Macquenoise"
  },
  {
    "zip": "6594",
    "name": "Beauwelz"
  },
  {
    "zip": "6596",
    "name": "Forge-Philippe"
  },
  {
    "zip": "6596",
    "name": "Seloignes"
  },
  {
    "zip": "6600",
    "name": "Bastogne"
  },
  {
    "zip": "6600",
    "name": "Longvilly"
  },
  {
    "zip": "6600",
    "name": "Noville"
  },
  {
    "zip": "6600",
    "name": "Villers-La-Bonne-Eau"
  },
  {
    "zip": "6600",
    "name": "Wardin"
  },
  {
    "zip": "6630",
    "name": "Martelange"
  },
  {
    "zip": "6637",
    "name": "Fauvillers"
  },
  {
    "zip": "6637",
    "name": "Hollange"
  },
  {
    "zip": "6637",
    "name": "Tintange"
  },
  {
    "zip": "6640",
    "name": "Hompr\u00e9"
  },
  {
    "zip": "6640",
    "name": "Morhet"
  },
  {
    "zip": "6640",
    "name": "Nives"
  },
  {
    "zip": "6640",
    "name": "Sibret"
  },
  {
    "zip": "6640",
    "name": "Vaux-Lez-Rosi\u00e8res"
  },
  {
    "zip": "6640",
    "name": "Vaux-Sur-S\u00fbre"
  },
  {
    "zip": "6642",
    "name": "Juseret"
  },
  {
    "zip": "6660",
    "name": "Houffalize"
  },
  {
    "zip": "6660",
    "name": "Nadrin"
  },
  {
    "zip": "6661",
    "name": "Mont"
  },
  {
    "zip": "6661",
    "name": "Tailles"
  },
  {
    "zip": "6662",
    "name": "Tavigny"
  },
  {
    "zip": "6663",
    "name": "Mabompr\u00e9"
  },
  {
    "zip": "6666",
    "name": "Wibrin"
  },
  {
    "zip": "6670",
    "name": "Gouvy"
  },
  {
    "zip": "6670",
    "name": "Limerl\u00e9"
  },
  {
    "zip": "6671",
    "name": "Bovigny"
  },
  {
    "zip": "6672",
    "name": "Beho"
  },
  {
    "zip": "6673",
    "name": "Cherain"
  },
  {
    "zip": "6674",
    "name": "Montleban"
  },
  {
    "zip": "6680",
    "name": "Amberloup"
  },
  {
    "zip": "6680",
    "name": "Sainte-Ode"
  },
  {
    "zip": "6680",
    "name": "Tillet"
  },
  {
    "zip": "6681",
    "name": "Lavacherie"
  },
  {
    "zip": "6686",
    "name": "Flamierge"
  },
  {
    "zip": "6687",
    "name": "Bertogne"
  },
  {
    "zip": "6688",
    "name": "Longchamps"
  },
  {
    "zip": "6690",
    "name": "Bihain"
  },
  {
    "zip": "6690",
    "name": "Vielsalm"
  },
  {
    "zip": "6692",
    "name": "Petit-Thier"
  },
  {
    "zip": "6698",
    "name": "Grand-Halleux"
  },
  {
    "zip": "6700",
    "name": "Arlon"
  },
  {
    "zip": "6700",
    "name": "Bonnert"
  },
  {
    "zip": "6700",
    "name": "Heinsch"
  },
  {
    "zip": "6700",
    "name": "Toernich"
  },
  {
    "zip": "6704",
    "name": "Guirsch"
  },
  {
    "zip": "6706",
    "name": "Autelbas"
  },
  {
    "zip": "6717",
    "name": "Attert"
  },
  {
    "zip": "6717",
    "name": "Nobressart"
  },
  {
    "zip": "6717",
    "name": "Nothomb"
  },
  {
    "zip": "6717",
    "name": "Thiaumont"
  },
  {
    "zip": "6717",
    "name": "Tontelange"
  },
  {
    "zip": "6720",
    "name": "Habay"
  },
  {
    "zip": "6720",
    "name": "Habay-La-Neuve"
  },
  {
    "zip": "6720",
    "name": "Hachy"
  },
  {
    "zip": "6721",
    "name": "Anlier"
  },
  {
    "zip": "6723",
    "name": "Habay-La-Vieille"
  },
  {
    "zip": "6724",
    "name": "Houdemont"
  },
  {
    "zip": "6724",
    "name": "Rulles"
  },
  {
    "zip": "6730",
    "name": "Bellefontaine"
  },
  {
    "zip": "6730",
    "name": "Rossignol"
  },
  {
    "zip": "6730",
    "name": "Saint-Vincent"
  },
  {
    "zip": "6730",
    "name": "Tintigny"
  },
  {
    "zip": "6740",
    "name": "Etalle"
  },
  {
    "zip": "6740",
    "name": "Sainte-Marie-Sur-Semois"
  },
  {
    "zip": "6740",
    "name": "Villers-Sur-Semois"
  },
  {
    "zip": "6741",
    "name": "Vance"
  },
  {
    "zip": "6742",
    "name": "Chantemelle"
  },
  {
    "zip": "6743",
    "name": "Buzenol"
  },
  {
    "zip": "6747",
    "name": "Ch\u00e2tillon"
  },
  {
    "zip": "6747",
    "name": "Meix-Le-Tige"
  },
  {
    "zip": "6747",
    "name": "Saint-L\u00e9ger"
  },
  {
    "zip": "6750",
    "name": "Musson"
  },
  {
    "zip": "6750",
    "name": "Mussy-La-Ville"
  },
  {
    "zip": "6750",
    "name": "Signeulx"
  },
  {
    "zip": "6760",
    "name": "Bleid"
  },
  {
    "zip": "6760",
    "name": "Ethe"
  },
  {
    "zip": "6760",
    "name": "Ruette"
  },
  {
    "zip": "6760",
    "name": "Virton"
  },
  {
    "zip": "6761",
    "name": "Latour"
  },
  {
    "zip": "6762",
    "name": "Saint-Mard"
  },
  {
    "zip": "6767",
    "name": "Dampicourt"
  },
  {
    "zip": "6767",
    "name": "Harnoncourt"
  },
  {
    "zip": "6767",
    "name": "Lamorteau"
  },
  {
    "zip": "6767",
    "name": "Rouvroy"
  },
  {
    "zip": "6767",
    "name": "Torgny"
  },
  {
    "zip": "6769",
    "name": "G\u00e9rouville"
  },
  {
    "zip": "6769",
    "name": "Meix-Devant-Virton"
  },
  {
    "zip": "6769",
    "name": "Robelmont"
  },
  {
    "zip": "6769",
    "name": "Sommethonne"
  },
  {
    "zip": "6769",
    "name": "Villers-La-Loue"
  },
  {
    "zip": "6780",
    "name": "Hondelange"
  },
  {
    "zip": "6780",
    "name": "Messancy"
  },
  {
    "zip": "6780",
    "name": "Wolkrange"
  },
  {
    "zip": "6781",
    "name": "S\u00e9lange"
  },
  {
    "zip": "6782",
    "name": "Habergy"
  },
  {
    "zip": "6790",
    "name": "Aubange"
  },
  {
    "zip": "6791",
    "name": "Athus"
  },
  {
    "zip": "6792",
    "name": "Halanzy"
  },
  {
    "zip": "6792",
    "name": "Rachecourt"
  },
  {
    "zip": "6800",
    "name": "Bras"
  },
  {
    "zip": "6800",
    "name": "Freux"
  },
  {
    "zip": "6800",
    "name": "Libramont-Chevigny"
  },
  {
    "zip": "6800",
    "name": "Moircy"
  },
  {
    "zip": "6800",
    "name": "Recogne"
  },
  {
    "zip": "6800",
    "name": "Remagne"
  },
  {
    "zip": "6800",
    "name": "Saint-Pierre"
  },
  {
    "zip": "6800",
    "name": "Sainte-Marie-Chevigny"
  },
  {
    "zip": "6810",
    "name": "Chiny"
  },
  {
    "zip": "6810",
    "name": "Izel"
  },
  {
    "zip": "6810",
    "name": "Jamoigne"
  },
  {
    "zip": "6811",
    "name": "Les Bulles"
  },
  {
    "zip": "6812",
    "name": "Suxy"
  },
  {
    "zip": "6813",
    "name": "Termes"
  },
  {
    "zip": "6820",
    "name": "Florenville"
  },
  {
    "zip": "6820",
    "name": "Fontenoille"
  },
  {
    "zip": "6820",
    "name": "Muno"
  },
  {
    "zip": "6820",
    "name": "Sainte-C\u00e9cile"
  },
  {
    "zip": "6821",
    "name": "Lacuisine"
  },
  {
    "zip": "6823",
    "name": "Villers-Devant-Orval"
  },
  {
    "zip": "6824",
    "name": "Chassepierre"
  },
  {
    "zip": "6830",
    "name": "Bouillon"
  },
  {
    "zip": "6830",
    "name": "Les Hayons"
  },
  {
    "zip": "6830",
    "name": "Poupehan"
  },
  {
    "zip": "6830",
    "name": "Rochehaut"
  },
  {
    "zip": "6831",
    "name": "Noirfontaine"
  },
  {
    "zip": "6832",
    "name": "Sensenruth"
  },
  {
    "zip": "6833",
    "name": "Ucimont"
  },
  {
    "zip": "6833",
    "name": "Vivy"
  },
  {
    "zip": "6834",
    "name": "Bellevaux"
  },
  {
    "zip": "6836",
    "name": "Dohan"
  },
  {
    "zip": "6838",
    "name": "Corbion"
  },
  {
    "zip": "6840",
    "name": "Grandvoir"
  },
  {
    "zip": "6840",
    "name": "Grapfontaine"
  },
  {
    "zip": "6840",
    "name": "Hamipr\u00e9"
  },
  {
    "zip": "6840",
    "name": "Longlier"
  },
  {
    "zip": "6840",
    "name": "Neufch\u00e2teau"
  },
  {
    "zip": "6840",
    "name": "Tournay"
  },
  {
    "zip": "6850",
    "name": "Carlsbourg"
  },
  {
    "zip": "6850",
    "name": "Offagne"
  },
  {
    "zip": "6850",
    "name": "Paliseul"
  },
  {
    "zip": "6851",
    "name": "Nollevaux"
  },
  {
    "zip": "6852",
    "name": "Maissin"
  },
  {
    "zip": "6852",
    "name": "Opont"
  },
  {
    "zip": "6853",
    "name": "Framont"
  },
  {
    "zip": "6856",
    "name": "Fays-Les-Veneurs"
  },
  {
    "zip": "6860",
    "name": "Assenois"
  },
  {
    "zip": "6860",
    "name": "Ebly"
  },
  {
    "zip": "6860",
    "name": "L\u00e9glise"
  },
  {
    "zip": "6860",
    "name": "Mellier"
  },
  {
    "zip": "6860",
    "name": "Witry"
  },
  {
    "zip": "6870",
    "name": "Arville"
  },
  {
    "zip": "6870",
    "name": "Awenne"
  },
  {
    "zip": "6870",
    "name": "Hatrival"
  },
  {
    "zip": "6870",
    "name": "Mirwart"
  },
  {
    "zip": "6870",
    "name": "Saint-Hubert"
  },
  {
    "zip": "6870",
    "name": "Vesqueville"
  },
  {
    "zip": "6880",
    "name": "Auby-Sur-Semois"
  },
  {
    "zip": "6880",
    "name": "Bertrix"
  },
  {
    "zip": "6880",
    "name": "Cugnon"
  },
  {
    "zip": "6880",
    "name": "Jehonville"
  },
  {
    "zip": "6880",
    "name": "Orgeo"
  },
  {
    "zip": "6887",
    "name": "Herbeumont"
  },
  {
    "zip": "6887",
    "name": "Saint-M\u00e9dard"
  },
  {
    "zip": "6887",
    "name": "Straimont"
  },
  {
    "zip": "6890",
    "name": "Anloy"
  },
  {
    "zip": "6890",
    "name": "Libin"
  },
  {
    "zip": "6890",
    "name": "Ochamps"
  },
  {
    "zip": "6890",
    "name": "Redu"
  },
  {
    "zip": "6890",
    "name": "Smuid"
  },
  {
    "zip": "6890",
    "name": "Transinne"
  },
  {
    "zip": "6890",
    "name": "Villance"
  },
  {
    "zip": "6900",
    "name": "Aye"
  },
  {
    "zip": "6900",
    "name": "Hargimont"
  },
  {
    "zip": "6900",
    "name": "Humain"
  },
  {
    "zip": "6900",
    "name": "Marche-En-Famenne"
  },
  {
    "zip": "6900",
    "name": "On"
  },
  {
    "zip": "6900",
    "name": "Roy"
  },
  {
    "zip": "6900",
    "name": "Waha"
  },
  {
    "zip": "6920",
    "name": "Sohier"
  },
  {
    "zip": "6920",
    "name": "Wellin"
  },
  {
    "zip": "6921",
    "name": "Chanly"
  },
  {
    "zip": "6922",
    "name": "Halma"
  },
  {
    "zip": "6924",
    "name": "Lomprez"
  },
  {
    "zip": "6927",
    "name": "Bure"
  },
  {
    "zip": "6927",
    "name": "Grupont"
  },
  {
    "zip": "6927",
    "name": "Resteigne"
  },
  {
    "zip": "6927",
    "name": "Tellin"
  },
  {
    "zip": "6929",
    "name": "Daverdisse"
  },
  {
    "zip": "6929",
    "name": "Gembes"
  },
  {
    "zip": "6929",
    "name": "Haut-Fays"
  },
  {
    "zip": "6929",
    "name": "Porcheresse"
  },
  {
    "zip": "6940",
    "name": "Durbuy"
  },
  {
    "zip": "6940",
    "name": "Grandhan"
  },
  {
    "zip": "6940",
    "name": "Septon"
  },
  {
    "zip": "6940",
    "name": "W\u00e9ris"
  },
  {
    "zip": "6941",
    "name": "Bende"
  },
  {
    "zip": "6941",
    "name": "Bomal-Sur-Ourthe"
  },
  {
    "zip": "6941",
    "name": "Borlon"
  },
  {
    "zip": "6941",
    "name": "Heyd"
  },
  {
    "zip": "6941",
    "name": "Izier"
  },
  {
    "zip": "6941",
    "name": "Tohogne"
  },
  {
    "zip": "6941",
    "name": "Villers-Sainte-Gertrude"
  },
  {
    "zip": "6950",
    "name": "Harsin"
  },
  {
    "zip": "6950",
    "name": "Nassogne"
  },
  {
    "zip": "6951",
    "name": "Bande"
  },
  {
    "zip": "6952",
    "name": "Grune"
  },
  {
    "zip": "6953",
    "name": "Ambly"
  },
  {
    "zip": "6953",
    "name": "Forri\u00e8res"
  },
  {
    "zip": "6953",
    "name": "Lesterny"
  },
  {
    "zip": "6953",
    "name": "Masbourg"
  },
  {
    "zip": "6960",
    "name": "Dochamps"
  },
  {
    "zip": "6960",
    "name": "Grandmenil"
  },
  {
    "zip": "6960",
    "name": "Harre"
  },
  {
    "zip": "6960",
    "name": "Malempr\u00e9"
  },
  {
    "zip": "6960",
    "name": "Manhay"
  },
  {
    "zip": "6960",
    "name": "Odeigne"
  },
  {
    "zip": "6960",
    "name": "Vaux-Chavanne"
  },
  {
    "zip": "6970",
    "name": "Tenneville"
  },
  {
    "zip": "6971",
    "name": "Champlon"
  },
  {
    "zip": "6972",
    "name": "Erneuville"
  },
  {
    "zip": "6980",
    "name": "Beausaint"
  },
  {
    "zip": "6980",
    "name": "La Roche-En-Ardenne"
  },
  {
    "zip": "6982",
    "name": "Samr\u00e9e"
  },
  {
    "zip": "6983",
    "name": "Ortho"
  },
  {
    "zip": "6984",
    "name": "Hives"
  },
  {
    "zip": "6986",
    "name": "Halleux"
  },
  {
    "zip": "6987",
    "name": "Beffe"
  },
  {
    "zip": "6987",
    "name": "Hodister"
  },
  {
    "zip": "6987",
    "name": "Marcourt"
  },
  {
    "zip": "6987",
    "name": "Rendeux"
  },
  {
    "zip": "6990",
    "name": "Fronville"
  },
  {
    "zip": "6990",
    "name": "Hampteau"
  },
  {
    "zip": "6990",
    "name": "Hotton"
  },
  {
    "zip": "6990",
    "name": "Marenne"
  },
  {
    "zip": "6997",
    "name": "Amonines"
  },
  {
    "zip": "6997",
    "name": "Erez\u00e9e"
  },
  {
    "zip": "6997",
    "name": "Mormont"
  },
  {
    "zip": "6997",
    "name": "Soy"
  },
  {
    "zip": "7000",
    "name": "Mons"
  },
  {
    "zip": "7011",
    "name": "Ghlin"
  },
  {
    "zip": "7012",
    "name": "Fl\u00e9nu"
  },
  {
    "zip": "7012",
    "name": "Jemappes"
  },
  {
    "zip": "7020",
    "name": "Maisi\u00e8res"
  },
  {
    "zip": "7020",
    "name": "Nimy"
  },
  {
    "zip": "7021",
    "name": "Havre"
  },
  {
    "zip": "7022",
    "name": "Harmignies"
  },
  {
    "zip": "7022",
    "name": "Harveng"
  },
  {
    "zip": "7022",
    "name": "Hyon"
  },
  {
    "zip": "7022",
    "name": "Mesvin"
  },
  {
    "zip": "7022",
    "name": "Nouvelles"
  },
  {
    "zip": "7024",
    "name": "Ciply"
  },
  {
    "zip": "7030",
    "name": "Saint-Symphorien"
  },
  {
    "zip": "7031",
    "name": "Villers-Saint-Ghislain"
  },
  {
    "zip": "7032",
    "name": "Spiennes"
  },
  {
    "zip": "7033",
    "name": "Cuesmes"
  },
  {
    "zip": "7034",
    "name": "Obourg"
  },
  {
    "zip": "7034",
    "name": "Saint-Denis"
  },
  {
    "zip": "7040",
    "name": "Asquillies"
  },
  {
    "zip": "7040",
    "name": "Aulnois"
  },
  {
    "zip": "7040",
    "name": "Blaregnies"
  },
  {
    "zip": "7040",
    "name": "Bougnies"
  },
  {
    "zip": "7040",
    "name": "Genly"
  },
  {
    "zip": "7040",
    "name": "Goegnies-Chauss\u00e9e"
  },
  {
    "zip": "7040",
    "name": "Qu\u00e9vy"
  },
  {
    "zip": "7040",
    "name": "Qu\u00e9vy-Le-Grand"
  },
  {
    "zip": "7040",
    "name": "Qu\u00e9vy-Le-Petit"
  },
  {
    "zip": "7041",
    "name": "Givry"
  },
  {
    "zip": "7041",
    "name": "Havay"
  },
  {
    "zip": "7050",
    "name": "Erbaut"
  },
  {
    "zip": "7050",
    "name": "Erbisoeul"
  },
  {
    "zip": "7050",
    "name": "Herchies"
  },
  {
    "zip": "7050",
    "name": "Jurbise"
  },
  {
    "zip": "7050",
    "name": "Masnuy-Saint-Jean"
  },
  {
    "zip": "7050",
    "name": "Masnuy-Saint-Pierre"
  },
  {
    "zip": "7060",
    "name": "Horrues"
  },
  {
    "zip": "7060",
    "name": "Soignies"
  },
  {
    "zip": "7061",
    "name": "Casteau"
  },
  {
    "zip": "7061",
    "name": "Thieusies"
  },
  {
    "zip": "7062",
    "name": "Naast"
  },
  {
    "zip": "7063",
    "name": "Chauss\u00e9e-Notre-Dame-Louvignies"
  },
  {
    "zip": "7063",
    "name": "Neufvilles"
  },
  {
    "zip": "7070",
    "name": "Gottignies"
  },
  {
    "zip": "7070",
    "name": "Le Roeulx"
  },
  {
    "zip": "7070",
    "name": "Mignault"
  },
  {
    "zip": "7070",
    "name": "Thieu"
  },
  {
    "zip": "7070",
    "name": "Ville-Sur-Haine"
  },
  {
    "zip": "7080",
    "name": "Eugies"
  },
  {
    "zip": "7080",
    "name": "Frameries"
  },
  {
    "zip": "7080",
    "name": "La Bouverie"
  },
  {
    "zip": "7080",
    "name": "Noirchain"
  },
  {
    "zip": "7080",
    "name": "Sars-La-Bruy\u00e8re"
  },
  {
    "zip": "7090",
    "name": "Braine-Le-Comte"
  },
  {
    "zip": "7090",
    "name": "Hennuy\u00e8res"
  },
  {
    "zip": "7090",
    "name": "Henripont"
  },
  {
    "zip": "7090",
    "name": "Petit-Roeulx-Lez-Braine"
  },
  {
    "zip": "7090",
    "name": "Ronqui\u00e8res"
  },
  {
    "zip": "7090",
    "name": "Steenkerque"
  },
  {
    "zip": "7100",
    "name": "Haine-Saint-Paul"
  },
  {
    "zip": "7100",
    "name": "Haine-Saint-Pierre"
  },
  {
    "zip": "7100",
    "name": "La Louvi\u00e8re"
  },
  {
    "zip": "7100",
    "name": "Saint-Vaast"
  },
  {
    "zip": "7100",
    "name": "Trivi\u00e8res"
  },
  {
    "zip": "7110",
    "name": "Boussoit"
  },
  {
    "zip": "7110",
    "name": "Houdeng-Aimeries"
  },
  {
    "zip": "7110",
    "name": "Houdeng-Goegnies"
  },
  {
    "zip": "7110",
    "name": "Maurage"
  },
  {
    "zip": "7110",
    "name": "Str\u00e9py-Bracquegnies"
  },
  {
    "zip": "7120",
    "name": "Croix-Lez-Rouveroy"
  },
  {
    "zip": "7120",
    "name": "Estinnes"
  },
  {
    "zip": "7120",
    "name": "Estinnes-Au-Mont"
  },
  {
    "zip": "7120",
    "name": "Estinnes-Au-Val"
  },
  {
    "zip": "7120",
    "name": "Fauroeulx"
  },
  {
    "zip": "7120",
    "name": "Haulchin"
  },
  {
    "zip": "7120",
    "name": "Peissant"
  },
  {
    "zip": "7120",
    "name": "Rouveroy"
  },
  {
    "zip": "7120",
    "name": "Vellereille-Le-Sec"
  },
  {
    "zip": "7120",
    "name": "Vellereille-Les-Brayeux"
  },
  {
    "zip": "7130",
    "name": "Battignies"
  },
  {
    "zip": "7130",
    "name": "Binche"
  },
  {
    "zip": "7130",
    "name": "Bray"
  },
  {
    "zip": "7131",
    "name": "Waudrez"
  },
  {
    "zip": "7133",
    "name": "Buvrinnes"
  },
  {
    "zip": "7134",
    "name": "Epinois"
  },
  {
    "zip": "7134",
    "name": "Leval-Trahegnies"
  },
  {
    "zip": "7134",
    "name": "P\u00e9ronnes-Lez-Binche"
  },
  {
    "zip": "7134",
    "name": "Ressaix"
  },
  {
    "zip": "7140",
    "name": "Morlanwelz"
  },
  {
    "zip": "7140",
    "name": "Morlanwelz-Mariemont"
  },
  {
    "zip": "7141",
    "name": "Carni\u00e8res"
  },
  {
    "zip": "7141",
    "name": "Mont-Sainte-Aldegonde"
  },
  {
    "zip": "7160",
    "name": "Chapelle-Lez-Herlaimont"
  },
  {
    "zip": "7160",
    "name": "Godarville"
  },
  {
    "zip": "7160",
    "name": "Pi\u00e9ton"
  },
  {
    "zip": "7170",
    "name": "Bellecourt"
  },
  {
    "zip": "7170",
    "name": "Bois-D'haine"
  },
  {
    "zip": "7170",
    "name": "Fayt-Lez-Manage"
  },
  {
    "zip": "7170",
    "name": "La Hestre"
  },
  {
    "zip": "7170",
    "name": "Manage"
  },
  {
    "zip": "7180",
    "name": "Seneffe"
  },
  {
    "zip": "7181",
    "name": "Arquennes"
  },
  {
    "zip": "7181",
    "name": "Familleureux"
  },
  {
    "zip": "7181",
    "name": "Feluy"
  },
  {
    "zip": "7181",
    "name": "Petit-Roeulx-Lez-Nivelles"
  },
  {
    "zip": "7190",
    "name": "Ecaussinnes"
  },
  {
    "zip": "7190",
    "name": "Ecaussinnes-D'enghien"
  },
  {
    "zip": "7190",
    "name": "Marche-Lez-Ecaussinnes"
  },
  {
    "zip": "7191",
    "name": "Ecaussinnes-Lalaing"
  },
  {
    "zip": "7300",
    "name": "Boussu"
  },
  {
    "zip": "7301",
    "name": "Hornu"
  },
  {
    "zip": "7320",
    "name": "Bernissart"
  },
  {
    "zip": "7321",
    "name": "Blaton"
  },
  {
    "zip": "7321",
    "name": "Harchies"
  },
  {
    "zip": "7322",
    "name": "Pommeroeul"
  },
  {
    "zip": "7322",
    "name": "Ville-Pommeroeul"
  },
  {
    "zip": "7330",
    "name": "Saint-Ghislain"
  },
  {
    "zip": "7331",
    "name": "Baudour"
  },
  {
    "zip": "7332",
    "name": "Neufmaison"
  },
  {
    "zip": "7332",
    "name": "Sirault"
  },
  {
    "zip": "7333",
    "name": "Tertre"
  },
  {
    "zip": "7334",
    "name": "Hautrage"
  },
  {
    "zip": "7334",
    "name": "Villerot"
  },
  {
    "zip": "7340",
    "name": "Colfontaine"
  },
  {
    "zip": "7340",
    "name": "Paturages"
  },
  {
    "zip": "7340",
    "name": "Warquignies"
  },
  {
    "zip": "7340",
    "name": "Wasmes"
  },
  {
    "zip": "7350",
    "name": "Hainin"
  },
  {
    "zip": "7350",
    "name": "Hensies"
  },
  {
    "zip": "7350",
    "name": "Montroeul-Sur-Haine"
  },
  {
    "zip": "7350",
    "name": "Thulin"
  },
  {
    "zip": "7370",
    "name": "Blaugies"
  },
  {
    "zip": "7370",
    "name": "Dour"
  },
  {
    "zip": "7370",
    "name": "Elouges"
  },
  {
    "zip": "7370",
    "name": "Wih\u00e9ries"
  },
  {
    "zip": "7380",
    "name": "Baisieux"
  },
  {
    "zip": "7380",
    "name": "Qui\u00e9vrain"
  },
  {
    "zip": "7382",
    "name": "Audregnies"
  },
  {
    "zip": "7387",
    "name": "Angre"
  },
  {
    "zip": "7387",
    "name": "Angreau"
  },
  {
    "zip": "7387",
    "name": "Athis"
  },
  {
    "zip": "7387",
    "name": "Autreppe"
  },
  {
    "zip": "7387",
    "name": "Erquennes"
  },
  {
    "zip": "7387",
    "name": "Fayt-Le-Franc"
  },
  {
    "zip": "7387",
    "name": "Honnelles"
  },
  {
    "zip": "7387",
    "name": "Marchipont"
  },
  {
    "zip": "7387",
    "name": "Montignies-Sur-Roc"
  },
  {
    "zip": "7387",
    "name": "Onnezies"
  },
  {
    "zip": "7387",
    "name": "Roisin"
  },
  {
    "zip": "7390",
    "name": "Quaregnon"
  },
  {
    "zip": "7390",
    "name": "Wasmuel"
  },
  {
    "zip": "7500",
    "name": "Ere"
  },
  {
    "zip": "7500",
    "name": "Saint-Maur"
  },
  {
    "zip": "7500",
    "name": "Tournai"
  },
  {
    "zip": "7501",
    "name": "Orcq"
  },
  {
    "zip": "7502",
    "name": "Esplechin"
  },
  {
    "zip": "7503",
    "name": "Froyennes"
  },
  {
    "zip": "7504",
    "name": "Froidmont"
  },
  {
    "zip": "7506",
    "name": "Willemeau"
  },
  {
    "zip": "7520",
    "name": "Ramegnies-Chin"
  },
  {
    "zip": "7520",
    "name": "Templeuve"
  },
  {
    "zip": "7521",
    "name": "Chercq"
  },
  {
    "zip": "7522",
    "name": "Blandain"
  },
  {
    "zip": "7522",
    "name": "Hertain"
  },
  {
    "zip": "7522",
    "name": "Lamain"
  },
  {
    "zip": "7522",
    "name": "Marquain"
  },
  {
    "zip": "7530",
    "name": "Gaurain-Ramecroix"
  },
  {
    "zip": "7531",
    "name": "Havinnes"
  },
  {
    "zip": "7532",
    "name": "Beclers"
  },
  {
    "zip": "7533",
    "name": "Thimougies"
  },
  {
    "zip": "7534",
    "name": "Barry"
  },
  {
    "zip": "7534",
    "name": "Maulde"
  },
  {
    "zip": "7536",
    "name": "Vaulx"
  },
  {
    "zip": "7538",
    "name": "Vezon"
  },
  {
    "zip": "7540",
    "name": "Kain"
  },
  {
    "zip": "7540",
    "name": "Melles"
  },
  {
    "zip": "7540",
    "name": "Quartes"
  },
  {
    "zip": "7540",
    "name": "Rumillies"
  },
  {
    "zip": "7542",
    "name": "Mont-Saint-Aubert"
  },
  {
    "zip": "7543",
    "name": "Mourcourt"
  },
  {
    "zip": "7548",
    "name": "Warchin"
  },
  {
    "zip": "7600",
    "name": "P\u00e9ruwelz"
  },
  {
    "zip": "7601",
    "name": "Roucourt"
  },
  {
    "zip": "7602",
    "name": "Bury"
  },
  {
    "zip": "7603",
    "name": "Bon-Secours"
  },
  {
    "zip": "7604",
    "name": "Baugnies"
  },
  {
    "zip": "7604",
    "name": "Braffe"
  },
  {
    "zip": "7604",
    "name": "Brasmenil"
  },
  {
    "zip": "7604",
    "name": "Callenelle"
  },
  {
    "zip": "7604",
    "name": "Wasmes-Audemez-Briffoeil"
  },
  {
    "zip": "7608",
    "name": "Wiers"
  },
  {
    "zip": "7610",
    "name": "Rumes"
  },
  {
    "zip": "7611",
    "name": "La Glanerie"
  },
  {
    "zip": "7618",
    "name": "Taintignies"
  },
  {
    "zip": "7620",
    "name": "Bl\u00e9haries"
  },
  {
    "zip": "7620",
    "name": "Brunehaut"
  },
  {
    "zip": "7620",
    "name": "Guignies"
  },
  {
    "zip": "7620",
    "name": "Hollain"
  },
  {
    "zip": "7620",
    "name": "Jollain-Merlin"
  },
  {
    "zip": "7620",
    "name": "Wez-Velvain"
  },
  {
    "zip": "7621",
    "name": "Lesdain"
  },
  {
    "zip": "7622",
    "name": "Laplaigne"
  },
  {
    "zip": "7623",
    "name": "Rongy"
  },
  {
    "zip": "7624",
    "name": "Howardries"
  },
  {
    "zip": "7640",
    "name": "Antoing"
  },
  {
    "zip": "7640",
    "name": "Maubray"
  },
  {
    "zip": "7640",
    "name": "P\u00e9ronnes-Lez-Antoing"
  },
  {
    "zip": "7641",
    "name": "Bruyelle"
  },
  {
    "zip": "7642",
    "name": "Calonne"
  },
  {
    "zip": "7643",
    "name": "Fontenoy"
  },
  {
    "zip": "7700",
    "name": "Luingne"
  },
  {
    "zip": "7700",
    "name": "Mouscron"
  },
  {
    "zip": "7711",
    "name": "Dottignies"
  },
  {
    "zip": "7712",
    "name": "Herseaux"
  },
  {
    "zip": "7730",
    "name": "Bailleul"
  },
  {
    "zip": "7730",
    "name": "Estaimbourg"
  },
  {
    "zip": "7730",
    "name": "Estaimpuis"
  },
  {
    "zip": "7730",
    "name": "Evregnies"
  },
  {
    "zip": "7730",
    "name": "Leers-Nord"
  },
  {
    "zip": "7730",
    "name": "N\u00e9chin"
  },
  {
    "zip": "7730",
    "name": "Saint-L\u00e9ger"
  },
  {
    "zip": "7740",
    "name": "Pecq"
  },
  {
    "zip": "7740",
    "name": "Warcoing"
  },
  {
    "zip": "7742",
    "name": "H\u00e9rinnes-Lez-Pecq"
  },
  {
    "zip": "7743",
    "name": "Esquelmes"
  },
  {
    "zip": "7743",
    "name": "Obigies"
  },
  {
    "zip": "7750",
    "name": "Amougies"
  },
  {
    "zip": "7750",
    "name": "Anseroeul"
  },
  {
    "zip": "7750",
    "name": "Mont-De-L'enclus"
  },
  {
    "zip": "7750",
    "name": "Orroir"
  },
  {
    "zip": "7750",
    "name": "Russeignies"
  },
  {
    "zip": "7760",
    "name": "Celles"
  },
  {
    "zip": "7760",
    "name": "Escanaffles"
  },
  {
    "zip": "7760",
    "name": "Molenbaix"
  },
  {
    "zip": "7760",
    "name": "Popuelles"
  },
  {
    "zip": "7760",
    "name": "Pottes"
  },
  {
    "zip": "7760",
    "name": "Velaines"
  },
  {
    "zip": "7780",
    "name": "Comines"
  },
  {
    "zip": "7780",
    "name": "Comines-Warneton"
  },
  {
    "zip": "7781",
    "name": "Houthem"
  },
  {
    "zip": "7782",
    "name": "Ploegsteert"
  },
  {
    "zip": "7783",
    "name": "Bizet"
  },
  {
    "zip": "7784",
    "name": "Bas-Warneton"
  },
  {
    "zip": "7784",
    "name": "Warneton"
  },
  {
    "zip": "7800",
    "name": "Ath"
  },
  {
    "zip": "7800",
    "name": "Lanquesaint"
  },
  {
    "zip": "7801",
    "name": "Irchonwelz"
  },
  {
    "zip": "7802",
    "name": "Ormeignies"
  },
  {
    "zip": "7803",
    "name": "Bouvignies"
  },
  {
    "zip": "7804",
    "name": "Ostiches"
  },
  {
    "zip": "7804",
    "name": "Rebaix"
  },
  {
    "zip": "7810",
    "name": "Maffle"
  },
  {
    "zip": "7811",
    "name": "Arbre"
  },
  {
    "zip": "7812",
    "name": "Houtaing"
  },
  {
    "zip": "7812",
    "name": "Ligne"
  },
  {
    "zip": "7812",
    "name": "Mainvault"
  },
  {
    "zip": "7812",
    "name": "Moulbaix"
  },
  {
    "zip": "7812",
    "name": "Villers-Notre-Dame"
  },
  {
    "zip": "7812",
    "name": "Villers-Saint-Amand"
  },
  {
    "zip": "7822",
    "name": "Ghislenghien"
  },
  {
    "zip": "7822",
    "name": "Isi\u00e8res"
  },
  {
    "zip": "7822",
    "name": "Meslin-L'ev\u00eaque"
  },
  {
    "zip": "7823",
    "name": "Gibecq"
  },
  {
    "zip": "7830",
    "name": "Bassilly"
  },
  {
    "zip": "7830",
    "name": "Fouleng"
  },
  {
    "zip": "7830",
    "name": "Gondregnies"
  },
  {
    "zip": "7830",
    "name": "Graty"
  },
  {
    "zip": "7830",
    "name": "Hellebecq"
  },
  {
    "zip": "7830",
    "name": "Hoves"
  },
  {
    "zip": "7830",
    "name": "Silly"
  },
  {
    "zip": "7830",
    "name": "Thoricourt"
  },
  {
    "zip": "7850",
    "name": "Enghien"
  },
  {
    "zip": "7850",
    "name": "Marcq"
  },
  {
    "zip": "7850",
    "name": "Petit-Enghien"
  },
  {
    "zip": "7860",
    "name": "Lessines"
  },
  {
    "zip": "7861",
    "name": "Papignies"
  },
  {
    "zip": "7861",
    "name": "Wannebecq"
  },
  {
    "zip": "7862",
    "name": "Ogy"
  },
  {
    "zip": "7863",
    "name": "Ghoy"
  },
  {
    "zip": "7864",
    "name": "Deux-Acren"
  },
  {
    "zip": "7866",
    "name": "Bois-De-Lessines"
  },
  {
    "zip": "7866",
    "name": "Ollignies"
  },
  {
    "zip": "7870",
    "name": "Bauffe"
  },
  {
    "zip": "7870",
    "name": "Cambron-Saint-Vincent"
  },
  {
    "zip": "7870",
    "name": "Lens"
  },
  {
    "zip": "7870",
    "name": "Lombise"
  },
  {
    "zip": "7870",
    "name": "Montignies-Lez-Lens"
  },
  {
    "zip": "7880",
    "name": "Flobecq"
  },
  {
    "zip": "7890",
    "name": "Ellezelles"
  },
  {
    "zip": "7890",
    "name": "Lahamaide"
  },
  {
    "zip": "7890",
    "name": "Wodecq"
  },
  {
    "zip": "7900",
    "name": "Grandmetz"
  },
  {
    "zip": "7900",
    "name": "Leuze-En-Hainaut"
  },
  {
    "zip": "7901",
    "name": "Thieulain"
  },
  {
    "zip": "7903",
    "name": "Blicquy"
  },
  {
    "zip": "7903",
    "name": "Chapelle-\u00c0-Oie"
  },
  {
    "zip": "7903",
    "name": "Chapelle-\u00c0-Wattines"
  },
  {
    "zip": "7904",
    "name": "Pipaix"
  },
  {
    "zip": "7904",
    "name": "Tourpes"
  },
  {
    "zip": "7904",
    "name": "Willaupuis"
  },
  {
    "zip": "7906",
    "name": "Gallaix"
  },
  {
    "zip": "7910",
    "name": "Anvaing"
  },
  {
    "zip": "7910",
    "name": "Arc-Wattripont"
  },
  {
    "zip": "7910",
    "name": "Cordes"
  },
  {
    "zip": "7910",
    "name": "Ellignies-Lez-Frasnes"
  },
  {
    "zip": "7910",
    "name": "Forest"
  },
  {
    "zip": "7910",
    "name": "Frasnes-Lez-Anvaing"
  },
  {
    "zip": "7910",
    "name": "Wattripont"
  },
  {
    "zip": "7911",
    "name": "Buissenal"
  },
  {
    "zip": "7911",
    "name": "Frasnes-Lez-Buissenal"
  },
  {
    "zip": "7911",
    "name": "Hacquegnies"
  },
  {
    "zip": "7911",
    "name": "Herquegies"
  },
  {
    "zip": "7911",
    "name": "Montroeul-Au-Bois"
  },
  {
    "zip": "7911",
    "name": "Moustier"
  },
  {
    "zip": "7911",
    "name": "Oeudeghien"
  },
  {
    "zip": "7912",
    "name": "Dergneau"
  },
  {
    "zip": "7912",
    "name": "Saint-Sauveur"
  },
  {
    "zip": "7940",
    "name": "Brugelette"
  },
  {
    "zip": "7940",
    "name": "Cambron-Casteau"
  },
  {
    "zip": "7941",
    "name": "Attre"
  },
  {
    "zip": "7942",
    "name": "M\u00e9vergnies-Lez-Lens"
  },
  {
    "zip": "7943",
    "name": "Gages"
  },
  {
    "zip": "7950",
    "name": "Chi\u00e8vres"
  },
  {
    "zip": "7950",
    "name": "Grosage"
  },
  {
    "zip": "7950",
    "name": "Huissignies"
  },
  {
    "zip": "7950",
    "name": "Ladeuze"
  },
  {
    "zip": "7950",
    "name": "Tongre-Saint-Martin"
  },
  {
    "zip": "7951",
    "name": "Tongre-Notre-Dame"
  },
  {
    "zip": "7970",
    "name": "Beloeil"
  },
  {
    "zip": "7971",
    "name": "Bas\u00e8cles"
  },
  {
    "zip": "7971",
    "name": "Ramegnies"
  },
  {
    "zip": "7971",
    "name": "Thumaide"
  },
  {
    "zip": "7971",
    "name": "Wadelincourt"
  },
  {
    "zip": "7972",
    "name": "Aubechies"
  },
  {
    "zip": "7972",
    "name": "Quevaucamps"
  },
  {
    "zip": "7973",
    "name": "Grandglise"
  },
  {
    "zip": "7973",
    "name": "Stambruges"
  },
  {
    "zip": "8000",
    "name": "Brugge"
  },
  {
    "zip": "8000",
    "name": "Koolkerke"
  },
  {
    "zip": "8020",
    "name": "Hertsberge"
  },
  {
    "zip": "8020",
    "name": "Oostkamp"
  },
  {
    "zip": "8020",
    "name": "Ruddervoorde"
  },
  {
    "zip": "8020",
    "name": "Waardamme"
  },
  {
    "zip": "8200",
    "name": "Sint-Andries"
  },
  {
    "zip": "8200",
    "name": "Sint-Michiels"
  },
  {
    "zip": "8210",
    "name": "Loppem"
  },
  {
    "zip": "8210",
    "name": "Veldegem"
  },
  {
    "zip": "8210",
    "name": "Zedelgem"
  },
  {
    "zip": "8211",
    "name": "Aartrijke"
  },
  {
    "zip": "8300",
    "name": "Knokke"
  },
  {
    "zip": "8300",
    "name": "Knokke-Heist"
  },
  {
    "zip": "8300",
    "name": "Westkapelle"
  },
  {
    "zip": "8301",
    "name": "Ramskapelle"
  },
  {
    "zip": "8310",
    "name": "Assebroek"
  },
  {
    "zip": "8310",
    "name": "Sint-Kruis"
  },
  {
    "zip": "8340",
    "name": "Damme"
  },
  {
    "zip": "8340",
    "name": "Hoeke"
  },
  {
    "zip": "8340",
    "name": "Lapscheure"
  },
  {
    "zip": "8340",
    "name": "Moerkerke"
  },
  {
    "zip": "8340",
    "name": "Oostkerke"
  },
  {
    "zip": "8340",
    "name": "Sijsele"
  },
  {
    "zip": "8370",
    "name": "Blankenberge"
  },
  {
    "zip": "8370",
    "name": "Uitkerke"
  },
  {
    "zip": "8377",
    "name": "Houtave"
  },
  {
    "zip": "8377",
    "name": "Meetkerke"
  },
  {
    "zip": "8377",
    "name": "Nieuwmunster"
  },
  {
    "zip": "8377",
    "name": "Zuienkerke"
  },
  {
    "zip": "8380",
    "name": "Dudzele"
  },
  {
    "zip": "8380",
    "name": "Lissewege"
  },
  {
    "zip": "8380",
    "name": "Zeebrugge"
  },
  {
    "zip": "8400",
    "name": "Oostende"
  },
  {
    "zip": "8400",
    "name": "Stene"
  },
  {
    "zip": "8400",
    "name": "Zandvoorde"
  },
  {
    "zip": "8420",
    "name": "De Haan"
  },
  {
    "zip": "8420",
    "name": "Klemskerke"
  },
  {
    "zip": "8420",
    "name": "Wenduine"
  },
  {
    "zip": "8421",
    "name": "Vlissegem"
  },
  {
    "zip": "8430",
    "name": "Middelkerke"
  },
  {
    "zip": "8431",
    "name": "Wilskerke"
  },
  {
    "zip": "8432",
    "name": "Leffinge"
  },
  {
    "zip": "8433",
    "name": "Mannekensvere"
  },
  {
    "zip": "8433",
    "name": "Schore"
  },
  {
    "zip": "8433",
    "name": "Sint-Pieters-Kapelle"
  },
  {
    "zip": "8433",
    "name": "Slijpe"
  },
  {
    "zip": "8434",
    "name": "Lombardsijde"
  },
  {
    "zip": "8434",
    "name": "Westende"
  },
  {
    "zip": "8450",
    "name": "Bredene"
  },
  {
    "zip": "8460",
    "name": "Ettelgem"
  },
  {
    "zip": "8460",
    "name": "Oudenburg"
  },
  {
    "zip": "8460",
    "name": "Roksem"
  },
  {
    "zip": "8460",
    "name": "Westkerke"
  },
  {
    "zip": "8470",
    "name": "Gistel"
  },
  {
    "zip": "8470",
    "name": "Moere"
  },
  {
    "zip": "8470",
    "name": "Snaaskerke"
  },
  {
    "zip": "8470",
    "name": "Zevekote"
  },
  {
    "zip": "8480",
    "name": "Bekegem"
  },
  {
    "zip": "8480",
    "name": "Eernegem"
  },
  {
    "zip": "8480",
    "name": "Ichtegem"
  },
  {
    "zip": "8490",
    "name": "Jabbeke"
  },
  {
    "zip": "8490",
    "name": "Snellegem"
  },
  {
    "zip": "8490",
    "name": "Stalhille"
  },
  {
    "zip": "8490",
    "name": "Varsenare"
  },
  {
    "zip": "8490",
    "name": "Zerkegem"
  },
  {
    "zip": "8500",
    "name": "Kortrijk"
  },
  {
    "zip": "8501",
    "name": "Bissegem"
  },
  {
    "zip": "8501",
    "name": "Heule"
  },
  {
    "zip": "8510",
    "name": "Bellegem"
  },
  {
    "zip": "8510",
    "name": "Kooigem"
  },
  {
    "zip": "8510",
    "name": "Marke"
  },
  {
    "zip": "8510",
    "name": "Rollegem"
  },
  {
    "zip": "8511",
    "name": "Aalbeke"
  },
  {
    "zip": "8520",
    "name": "Kuurne"
  },
  {
    "zip": "8530",
    "name": "Harelbeke"
  },
  {
    "zip": "8531",
    "name": "Bavikhove"
  },
  {
    "zip": "8531",
    "name": "Hulste"
  },
  {
    "zip": "8540",
    "name": "Deerlijk"
  },
  {
    "zip": "8550",
    "name": "Zwevegem"
  },
  {
    "zip": "8551",
    "name": "Heestert"
  },
  {
    "zip": "8552",
    "name": "Moen"
  },
  {
    "zip": "8553",
    "name": "Otegem"
  },
  {
    "zip": "8554",
    "name": "Sint-Denijs"
  },
  {
    "zip": "8560",
    "name": "Gullegem"
  },
  {
    "zip": "8560",
    "name": "Moorsele"
  },
  {
    "zip": "8560",
    "name": "Wevelgem"
  },
  {
    "zip": "8570",
    "name": "Anzegem"
  },
  {
    "zip": "8570",
    "name": "Gijzelbrechtegem"
  },
  {
    "zip": "8570",
    "name": "Ingooigem"
  },
  {
    "zip": "8570",
    "name": "Vichte"
  },
  {
    "zip": "8572",
    "name": "Kaster"
  },
  {
    "zip": "8573",
    "name": "Tiegem"
  },
  {
    "zip": "8580",
    "name": "Avelgem"
  },
  {
    "zip": "8581",
    "name": "Kerkhove"
  },
  {
    "zip": "8581",
    "name": "Waarmaarde"
  },
  {
    "zip": "8582",
    "name": "Outrijve"
  },
  {
    "zip": "8583",
    "name": "Bossuit"
  },
  {
    "zip": "8587",
    "name": "Espierres"
  },
  {
    "zip": "8587",
    "name": "Espierres-Helchin"
  },
  {
    "zip": "8587",
    "name": "Helchin"
  },
  {
    "zip": "8600",
    "name": "Beerst"
  },
  {
    "zip": "8600",
    "name": "Diksmuide"
  },
  {
    "zip": "8600",
    "name": "Driekapellen"
  },
  {
    "zip": "8600",
    "name": "Esen"
  },
  {
    "zip": "8600",
    "name": "Kaaskerke"
  },
  {
    "zip": "8600",
    "name": "Keiem"
  },
  {
    "zip": "8600",
    "name": "Lampernisse"
  },
  {
    "zip": "8600",
    "name": "Leke"
  },
  {
    "zip": "8600",
    "name": "Nieuwkapelle"
  },
  {
    "zip": "8600",
    "name": "Oostkerke"
  },
  {
    "zip": "8600",
    "name": "Oudekapelle"
  },
  {
    "zip": "8600",
    "name": "Pervijze"
  },
  {
    "zip": "8600",
    "name": "Stuivekenskerke"
  },
  {
    "zip": "8600",
    "name": "Vladslo"
  },
  {
    "zip": "8600",
    "name": "Woumen"
  },
  {
    "zip": "8610",
    "name": "Handzame"
  },
  {
    "zip": "8610",
    "name": "Kortemark"
  },
  {
    "zip": "8610",
    "name": "Werken"
  },
  {
    "zip": "8610",
    "name": "Zarren"
  },
  {
    "zip": "8620",
    "name": "Nieuwpoort"
  },
  {
    "zip": "8620",
    "name": "Ramskapelle"
  },
  {
    "zip": "8620",
    "name": "Sint-Joris"
  },
  {
    "zip": "8630",
    "name": "Avekapelle"
  },
  {
    "zip": "8630",
    "name": "Booitshoeke"
  },
  {
    "zip": "8630",
    "name": "Bulskamp"
  },
  {
    "zip": "8630",
    "name": "De Moeren"
  },
  {
    "zip": "8630",
    "name": "Eggewaartskapelle"
  },
  {
    "zip": "8630",
    "name": "Houtem"
  },
  {
    "zip": "8630",
    "name": "Steenkerke"
  },
  {
    "zip": "8630",
    "name": "Veurne"
  },
  {
    "zip": "8630",
    "name": "Vinkem"
  },
  {
    "zip": "8630",
    "name": "Wulveringem"
  },
  {
    "zip": "8630",
    "name": "Zoutenaaie"
  },
  {
    "zip": "8640",
    "name": "Oostvleteren"
  },
  {
    "zip": "8640",
    "name": "Vleteren"
  },
  {
    "zip": "8640",
    "name": "Westvleteren"
  },
  {
    "zip": "8640",
    "name": "Woesten"
  },
  {
    "zip": "8647",
    "name": "Lo"
  },
  {
    "zip": "8647",
    "name": "Lo-Reninge"
  },
  {
    "zip": "8647",
    "name": "Noordschote"
  },
  {
    "zip": "8647",
    "name": "Pollinkhove"
  },
  {
    "zip": "8647",
    "name": "Reninge"
  },
  {
    "zip": "8650",
    "name": "Houthulst"
  },
  {
    "zip": "8650",
    "name": "Klerken"
  },
  {
    "zip": "8650",
    "name": "Merkem"
  },
  {
    "zip": "8660",
    "name": "Adinkerke"
  },
  {
    "zip": "8660",
    "name": "De Panne"
  },
  {
    "zip": "8670",
    "name": "Koksijde"
  },
  {
    "zip": "8670",
    "name": "Oostduinkerke"
  },
  {
    "zip": "8670",
    "name": "Wulpen"
  },
  {
    "zip": "8680",
    "name": "Bovekerke"
  },
  {
    "zip": "8680",
    "name": "Koekelare"
  },
  {
    "zip": "8680",
    "name": "Zande"
  },
  {
    "zip": "8690",
    "name": "Alveringem"
  },
  {
    "zip": "8690",
    "name": "Hoogstade"
  },
  {
    "zip": "8690",
    "name": "Oeren"
  },
  {
    "zip": "8690",
    "name": "Sint-Rijkers"
  },
  {
    "zip": "8691",
    "name": "Gijverinkhove"
  },
  {
    "zip": "8691",
    "name": "Izenberge"
  },
  {
    "zip": "8691",
    "name": "Leisele"
  },
  {
    "zip": "8691",
    "name": "Stavele"
  },
  {
    "zip": "8700",
    "name": "Aarsele"
  },
  {
    "zip": "8700",
    "name": "Kanegem"
  },
  {
    "zip": "8700",
    "name": "Schuiferskapelle"
  },
  {
    "zip": "8700",
    "name": "Tielt"
  },
  {
    "zip": "8710",
    "name": "Ooigem"
  },
  {
    "zip": "8710",
    "name": "Sint-Baafs-Vijve"
  },
  {
    "zip": "8710",
    "name": "Wielsbeke"
  },
  {
    "zip": "8720",
    "name": "Dentergem"
  },
  {
    "zip": "8720",
    "name": "Markegem"
  },
  {
    "zip": "8720",
    "name": "Oeselgem"
  },
  {
    "zip": "8720",
    "name": "Wakken"
  },
  {
    "zip": "8730",
    "name": "Beernem"
  },
  {
    "zip": "8730",
    "name": "Oedelem"
  },
  {
    "zip": "8730",
    "name": "Sint-Joris"
  },
  {
    "zip": "8740",
    "name": "Egem"
  },
  {
    "zip": "8740",
    "name": "Pittem"
  },
  {
    "zip": "8750",
    "name": "Wingene"
  },
  {
    "zip": "8750",
    "name": "Zwevezele"
  },
  {
    "zip": "8755",
    "name": "Ruiselede"
  },
  {
    "zip": "8760",
    "name": "Meulebeke"
  },
  {
    "zip": "8770",
    "name": "Ingelmunster"
  },
  {
    "zip": "8780",
    "name": "Oostrozebeke"
  },
  {
    "zip": "8790",
    "name": "Waregem"
  },
  {
    "zip": "8791",
    "name": "Beveren"
  },
  {
    "zip": "8792",
    "name": "Desselgem"
  },
  {
    "zip": "8793",
    "name": "Sint-Eloois-Vijve"
  },
  {
    "zip": "8800",
    "name": "Beveren"
  },
  {
    "zip": "8800",
    "name": "Oekene"
  },
  {
    "zip": "8800",
    "name": "Roeselare"
  },
  {
    "zip": "8800",
    "name": "Rumbeke"
  },
  {
    "zip": "8810",
    "name": "Lichtervelde"
  },
  {
    "zip": "8820",
    "name": "Torhout"
  },
  {
    "zip": "8830",
    "name": "Gits"
  },
  {
    "zip": "8830",
    "name": "Hooglede"
  },
  {
    "zip": "8840",
    "name": "Oostnieuwkerke"
  },
  {
    "zip": "8840",
    "name": "Staden"
  },
  {
    "zip": "8840",
    "name": "Westrozebeke"
  },
  {
    "zip": "8850",
    "name": "Ardooie"
  },
  {
    "zip": "8851",
    "name": "Koolskamp"
  },
  {
    "zip": "8860",
    "name": "Lendelede"
  },
  {
    "zip": "8870",
    "name": "Emelgem"
  },
  {
    "zip": "8870",
    "name": "Izegem"
  },
  {
    "zip": "8870",
    "name": "Kachtem"
  },
  {
    "zip": "8880",
    "name": "Ledegem"
  },
  {
    "zip": "8880",
    "name": "Rollegem-Kapelle"
  },
  {
    "zip": "8880",
    "name": "Sint-Eloois-Winkel"
  },
  {
    "zip": "8890",
    "name": "Dadizele"
  },
  {
    "zip": "8890",
    "name": "Moorslede"
  },
  {
    "zip": "8900",
    "name": "Brielen"
  },
  {
    "zip": "8900",
    "name": "Dikkebus"
  },
  {
    "zip": "8900",
    "name": "Ieper"
  },
  {
    "zip": "8900",
    "name": "Sint-Jan"
  },
  {
    "zip": "8902",
    "name": "Hollebeke"
  },
  {
    "zip": "8902",
    "name": "Voormezele"
  },
  {
    "zip": "8902",
    "name": "Zillebeke"
  },
  {
    "zip": "8904",
    "name": "Boezinge"
  },
  {
    "zip": "8904",
    "name": "Zuidschote"
  },
  {
    "zip": "8906",
    "name": "Elverdinge"
  },
  {
    "zip": "8908",
    "name": "Vlamertinge"
  },
  {
    "zip": "8920",
    "name": "Bikschote"
  },
  {
    "zip": "8920",
    "name": "Langemark"
  },
  {
    "zip": "8920",
    "name": "Langemark-Poelkapelle"
  },
  {
    "zip": "8920",
    "name": "Poelkapelle"
  },
  {
    "zip": "8930",
    "name": "Lauwe"
  },
  {
    "zip": "8930",
    "name": "Menen"
  },
  {
    "zip": "8930",
    "name": "Rekkem"
  },
  {
    "zip": "8940",
    "name": "Geluwe"
  },
  {
    "zip": "8940",
    "name": "Wervik"
  },
  {
    "zip": "8950",
    "name": "Heuvelland"
  },
  {
    "zip": "8950",
    "name": "Nieuwkerke"
  },
  {
    "zip": "8951",
    "name": "Dranouter"
  },
  {
    "zip": "8952",
    "name": "Wulvergem"
  },
  {
    "zip": "8953",
    "name": "Wijtschate"
  },
  {
    "zip": "8954",
    "name": "Westouter"
  },
  {
    "zip": "8956",
    "name": "Kemmel"
  },
  {
    "zip": "8957",
    "name": "Messines"
  },
  {
    "zip": "8958",
    "name": "Loker"
  },
  {
    "zip": "8970",
    "name": "Poperinge"
  },
  {
    "zip": "8970",
    "name": "Reningelst"
  },
  {
    "zip": "8972",
    "name": "Krombeke"
  },
  {
    "zip": "8972",
    "name": "Proven"
  },
  {
    "zip": "8972",
    "name": "Roesbrugge-Haringe"
  },
  {
    "zip": "8978",
    "name": "Watou"
  },
  {
    "zip": "8980",
    "name": "Beselare"
  },
  {
    "zip": "8980",
    "name": "Geluveld"
  },
  {
    "zip": "8980",
    "name": "Passendale"
  },
  {
    "zip": "8980",
    "name": "Zandvoorde"
  },
  {
    "zip": "8980",
    "name": "Zonnebeke"
  },
  {
    "zip": "9000",
    "name": "Gent"
  },
  {
    "zip": "9030",
    "name": "Mariakerke"
  },
  {
    "zip": "9031",
    "name": "Drongen"
  },
  {
    "zip": "9032",
    "name": "Wondelgem"
  },
  {
    "zip": "9040",
    "name": "Sint-Amandsberg"
  },
  {
    "zip": "9041",
    "name": "Oostakker"
  },
  {
    "zip": "9042",
    "name": "Desteldonk"
  },
  {
    "zip": "9042",
    "name": "Mendonk"
  },
  {
    "zip": "9042",
    "name": "Sint-Kruis-Winkel"
  },
  {
    "zip": "9050",
    "name": "Gentbrugge"
  },
  {
    "zip": "9050",
    "name": "Ledeberg"
  },
  {
    "zip": "9051",
    "name": "Afsnee"
  },
  {
    "zip": "9051",
    "name": "Sint-Denijs-Westrem"
  },
  {
    "zip": "9052",
    "name": "Zwijnaarde"
  },
  {
    "zip": "9060",
    "name": "Zelzate"
  },
  {
    "zip": "9070",
    "name": "Destelbergen"
  },
  {
    "zip": "9070",
    "name": "Heusden"
  },
  {
    "zip": "9080",
    "name": "Beervelde"
  },
  {
    "zip": "9080",
    "name": "Lochristi"
  },
  {
    "zip": "9080",
    "name": "Zaffelare"
  },
  {
    "zip": "9080",
    "name": "Zeveneken"
  },
  {
    "zip": "9090",
    "name": "Gontrode"
  },
  {
    "zip": "9090",
    "name": "Melle"
  },
  {
    "zip": "9100",
    "name": "Nieuwkerken-Waas"
  },
  {
    "zip": "9100",
    "name": "Sint-Niklaas"
  },
  {
    "zip": "9111",
    "name": "Belsele"
  },
  {
    "zip": "9112",
    "name": "Sinaai-Waas"
  },
  {
    "zip": "9120",
    "name": "Haasdonk"
  },
  {
    "zip": "9120",
    "name": "Kallo"
  },
  {
    "zip": "9120",
    "name": "Melsele"
  },
  {
    "zip": "9120",
    "name": "Vrasene"
  },
  {
    "zip": "9130",
    "name": "Doel"
  },
  {
    "zip": "9130",
    "name": "Kallo"
  },
  {
    "zip": "9130",
    "name": "Kieldrecht"
  },
  {
    "zip": "9130",
    "name": "Verrebroek"
  },
  {
    "zip": "9140",
    "name": "Elversele"
  },
  {
    "zip": "9140",
    "name": "Steendorp"
  },
  {
    "zip": "9140",
    "name": "Temse"
  },
  {
    "zip": "9140",
    "name": "Tielrode"
  },
  {
    "zip": "9150",
    "name": "Bazel"
  },
  {
    "zip": "9150",
    "name": "Kruibeke"
  },
  {
    "zip": "9150",
    "name": "Rupelmonde"
  },
  {
    "zip": "9160",
    "name": "Daknam"
  },
  {
    "zip": "9160",
    "name": "Eksaarde"
  },
  {
    "zip": "9160",
    "name": "Lokeren"
  },
  {
    "zip": "9170",
    "name": "De Klinge"
  },
  {
    "zip": "9170",
    "name": "Meerdonk"
  },
  {
    "zip": "9170",
    "name": "Sint-Gillis-Waas"
  },
  {
    "zip": "9170",
    "name": "Sint-Pauwels"
  },
  {
    "zip": "9180",
    "name": "Moerbeke-Waas"
  },
  {
    "zip": "9185",
    "name": "Wachtebeke"
  },
  {
    "zip": "9190",
    "name": "Kemzeke"
  },
  {
    "zip": "9190",
    "name": "Stekene"
  },
  {
    "zip": "9200",
    "name": "Appels"
  },
  {
    "zip": "9200",
    "name": "Baasrode"
  },
  {
    "zip": "9200",
    "name": "Dendermonde"
  },
  {
    "zip": "9200",
    "name": "Grembergen"
  },
  {
    "zip": "9200",
    "name": "Mespelare"
  },
  {
    "zip": "9200",
    "name": "Oudegem"
  },
  {
    "zip": "9200",
    "name": "Schoonaarde"
  },
  {
    "zip": "9200",
    "name": "Sint-Gillis-Dendermonde"
  },
  {
    "zip": "9220",
    "name": "Hamme"
  },
  {
    "zip": "9220",
    "name": "Moerzeke"
  },
  {
    "zip": "9230",
    "name": "Massemen"
  },
  {
    "zip": "9230",
    "name": "Westrem"
  },
  {
    "zip": "9230",
    "name": "Wetteren"
  },
  {
    "zip": "9240",
    "name": "Zele"
  },
  {
    "zip": "9250",
    "name": "Waasmunster"
  },
  {
    "zip": "9255",
    "name": "Buggenhout"
  },
  {
    "zip": "9255",
    "name": "Opdorp"
  },
  {
    "zip": "9260",
    "name": "Schellebelle"
  },
  {
    "zip": "9260",
    "name": "Serskamp"
  },
  {
    "zip": "9260",
    "name": "Wichelen"
  },
  {
    "zip": "9270",
    "name": "Kalken"
  },
  {
    "zip": "9270",
    "name": "Laarne"
  },
  {
    "zip": "9280",
    "name": "Denderbelle"
  },
  {
    "zip": "9280",
    "name": "Lebbeke"
  },
  {
    "zip": "9280",
    "name": "Wieze"
  },
  {
    "zip": "9290",
    "name": "Berlare"
  },
  {
    "zip": "9290",
    "name": "Overmere"
  },
  {
    "zip": "9290",
    "name": "Uitbergen"
  },
  {
    "zip": "9300",
    "name": "Aalst"
  },
  {
    "zip": "9308",
    "name": "Gijzegem"
  },
  {
    "zip": "9308",
    "name": "Hofstade"
  },
  {
    "zip": "9310",
    "name": "Baardegem"
  },
  {
    "zip": "9310",
    "name": "Herdersem"
  },
  {
    "zip": "9310",
    "name": "Meldert"
  },
  {
    "zip": "9310",
    "name": "Moorsel"
  },
  {
    "zip": "9320",
    "name": "Erembodegem"
  },
  {
    "zip": "9320",
    "name": "Nieuwerkerken"
  },
  {
    "zip": "9340",
    "name": "Impe"
  },
  {
    "zip": "9340",
    "name": "Lede"
  },
  {
    "zip": "9340",
    "name": "Oordegem"
  },
  {
    "zip": "9340",
    "name": "Smetlede"
  },
  {
    "zip": "9340",
    "name": "Wanzele"
  },
  {
    "zip": "9400",
    "name": "Appelterre-Eichem"
  },
  {
    "zip": "9400",
    "name": "Denderwindeke"
  },
  {
    "zip": "9400",
    "name": "Lieferinge"
  },
  {
    "zip": "9400",
    "name": "Nederhasselt"
  },
  {
    "zip": "9400",
    "name": "Ninove"
  },
  {
    "zip": "9400",
    "name": "Okegem"
  },
  {
    "zip": "9400",
    "name": "Voorde"
  },
  {
    "zip": "9401",
    "name": "Pollare"
  },
  {
    "zip": "9402",
    "name": "Meerbeke"
  },
  {
    "zip": "9403",
    "name": "Neigem"
  },
  {
    "zip": "9404",
    "name": "Aspelare"
  },
  {
    "zip": "9406",
    "name": "Outer"
  },
  {
    "zip": "9420",
    "name": "Aaigem"
  },
  {
    "zip": "9420",
    "name": "Bambrugge"
  },
  {
    "zip": "9420",
    "name": "Burst"
  },
  {
    "zip": "9420",
    "name": "Erondegem"
  },
  {
    "zip": "9420",
    "name": "Erpe"
  },
  {
    "zip": "9420",
    "name": "Erpe-Mere"
  },
  {
    "zip": "9420",
    "name": "Mere"
  },
  {
    "zip": "9420",
    "name": "Ottergem"
  },
  {
    "zip": "9450",
    "name": "Denderhoutem"
  },
  {
    "zip": "9450",
    "name": "Haaltert"
  },
  {
    "zip": "9450",
    "name": "Heldergem"
  },
  {
    "zip": "9451",
    "name": "Kerksken"
  },
  {
    "zip": "9470",
    "name": "Denderleeuw"
  },
  {
    "zip": "9472",
    "name": "Iddergem"
  },
  {
    "zip": "9473",
    "name": "Welle"
  },
  {
    "zip": "9500",
    "name": "Geraardsbergen"
  },
  {
    "zip": "9500",
    "name": "Goeferdinge"
  },
  {
    "zip": "9500",
    "name": "Moerbeke"
  },
  {
    "zip": "9500",
    "name": "Nederboelare"
  },
  {
    "zip": "9500",
    "name": "Onkerzele"
  },
  {
    "zip": "9500",
    "name": "Ophasselt"
  },
  {
    "zip": "9500",
    "name": "Overboelare"
  },
  {
    "zip": "9500",
    "name": "Viane"
  },
  {
    "zip": "9500",
    "name": "Zarlardinge"
  },
  {
    "zip": "9506",
    "name": "Grimminge"
  },
  {
    "zip": "9506",
    "name": "Idegem"
  },
  {
    "zip": "9506",
    "name": "Nieuwenhove"
  },
  {
    "zip": "9506",
    "name": "Schendelbeke"
  },
  {
    "zip": "9506",
    "name": "Smeerebbe-Vloerzegem"
  },
  {
    "zip": "9506",
    "name": "Waarbeke"
  },
  {
    "zip": "9506",
    "name": "Zandbergen"
  },
  {
    "zip": "9520",
    "name": "Bavegem"
  },
  {
    "zip": "9520",
    "name": "Oombergen"
  },
  {
    "zip": "9520",
    "name": "Sint-Lievens-Houtem"
  },
  {
    "zip": "9520",
    "name": "Vlierzele"
  },
  {
    "zip": "9520",
    "name": "Zonnegem"
  },
  {
    "zip": "9521",
    "name": "Letterhoutem"
  },
  {
    "zip": "9550",
    "name": "Herzele"
  },
  {
    "zip": "9550",
    "name": "Hillegem"
  },
  {
    "zip": "9550",
    "name": "Sint-Antelinks"
  },
  {
    "zip": "9550",
    "name": "Sint-Lievens-Esse"
  },
  {
    "zip": "9550",
    "name": "Steenhuize-Wijnhuize"
  },
  {
    "zip": "9550",
    "name": "Woubrechtegem"
  },
  {
    "zip": "9551",
    "name": "Ressegem"
  },
  {
    "zip": "9552",
    "name": "Borsbeke"
  },
  {
    "zip": "9570",
    "name": "Deftinge"
  },
  {
    "zip": "9570",
    "name": "Lierde"
  },
  {
    "zip": "9570",
    "name": "Sint-Maria-Lierde"
  },
  {
    "zip": "9571",
    "name": "Hemelveerdegem"
  },
  {
    "zip": "9572",
    "name": "Sint-Martens-Lierde"
  },
  {
    "zip": "9600",
    "name": "Renaix"
  },
  {
    "zip": "9620",
    "name": "Elene"
  },
  {
    "zip": "9620",
    "name": "Erwetegem"
  },
  {
    "zip": "9620",
    "name": "Godveerdegem"
  },
  {
    "zip": "9620",
    "name": "Grotenberge"
  },
  {
    "zip": "9620",
    "name": "Leeuwergem"
  },
  {
    "zip": "9620",
    "name": "Oombergen"
  },
  {
    "zip": "9620",
    "name": "Sint-Goriks-Oudenhove"
  },
  {
    "zip": "9620",
    "name": "Sint-Maria-Oudenhove"
  },
  {
    "zip": "9620",
    "name": "Strijpen"
  },
  {
    "zip": "9620",
    "name": "Velzeke-Ruddershove"
  },
  {
    "zip": "9620",
    "name": "Zottegem"
  },
  {
    "zip": "9630",
    "name": "Beerlegem"
  },
  {
    "zip": "9630",
    "name": "Dikkele"
  },
  {
    "zip": "9630",
    "name": "Hundelgem"
  },
  {
    "zip": "9630",
    "name": "Meilegem"
  },
  {
    "zip": "9630",
    "name": "Munkzwalm"
  },
  {
    "zip": "9630",
    "name": "Paulatem"
  },
  {
    "zip": "9630",
    "name": "Roborst"
  },
  {
    "zip": "9630",
    "name": "Rozebeke"
  },
  {
    "zip": "9630",
    "name": "Sint-Blasius-Boekel"
  },
  {
    "zip": "9630",
    "name": "Sint-Denijs-Boekel"
  },
  {
    "zip": "9630",
    "name": "Sint-Maria-Latem"
  },
  {
    "zip": "9630",
    "name": "Zwalm"
  },
  {
    "zip": "9636",
    "name": "Nederzwalm-Hermelgem"
  },
  {
    "zip": "9660",
    "name": "Brakel"
  },
  {
    "zip": "9660",
    "name": "Elst"
  },
  {
    "zip": "9660",
    "name": "Everbeek"
  },
  {
    "zip": "9660",
    "name": "Michelbeke"
  },
  {
    "zip": "9660",
    "name": "Nederbrakel"
  },
  {
    "zip": "9660",
    "name": "Opbrakel"
  },
  {
    "zip": "9660",
    "name": "Sint-Maria-Oudenhove"
  },
  {
    "zip": "9660",
    "name": "Zegelsem"
  },
  {
    "zip": "9661",
    "name": "Parike"
  },
  {
    "zip": "9667",
    "name": "Horebeke"
  },
  {
    "zip": "9667",
    "name": "Sint-Kornelis-Horebeke"
  },
  {
    "zip": "9667",
    "name": "Sint-Maria-Horebeke"
  },
  {
    "zip": "9680",
    "name": "Etikhove"
  },
  {
    "zip": "9680",
    "name": "Maarke-Kerkem"
  },
  {
    "zip": "9680",
    "name": "Maarkedal"
  },
  {
    "zip": "9681",
    "name": "Nukerke"
  },
  {
    "zip": "9688",
    "name": "Schorisse"
  },
  {
    "zip": "9690",
    "name": "Berchem"
  },
  {
    "zip": "9690",
    "name": "Kluisbergen"
  },
  {
    "zip": "9690",
    "name": "Kwaremont"
  },
  {
    "zip": "9690",
    "name": "Ruien"
  },
  {
    "zip": "9690",
    "name": "Zulzeke"
  },
  {
    "zip": "9700",
    "name": "Bevere"
  },
  {
    "zip": "9700",
    "name": "Edelare"
  },
  {
    "zip": "9700",
    "name": "Eine"
  },
  {
    "zip": "9700",
    "name": "Ename"
  },
  {
    "zip": "9700",
    "name": "Heurne"
  },
  {
    "zip": "9700",
    "name": "Leupegem"
  },
  {
    "zip": "9700",
    "name": "Mater"
  },
  {
    "zip": "9700",
    "name": "Melden"
  },
  {
    "zip": "9700",
    "name": "Mullem"
  },
  {
    "zip": "9700",
    "name": "Nederename"
  },
  {
    "zip": "9700",
    "name": "Ooike"
  },
  {
    "zip": "9700",
    "name": "Oudenaarde"
  },
  {
    "zip": "9700",
    "name": "Volkegem"
  },
  {
    "zip": "9700",
    "name": "Welden"
  },
  {
    "zip": "9750",
    "name": "Huise"
  },
  {
    "zip": "9750",
    "name": "Ouwegem"
  },
  {
    "zip": "9750",
    "name": "Zingem"
  },
  {
    "zip": "9770",
    "name": "Kruishoutem"
  },
  {
    "zip": "9771",
    "name": "Nokere"
  },
  {
    "zip": "9772",
    "name": "Wannegem-Lede"
  },
  {
    "zip": "9790",
    "name": "Elsegem"
  },
  {
    "zip": "9790",
    "name": "Moregem"
  },
  {
    "zip": "9790",
    "name": "Ooike"
  },
  {
    "zip": "9790",
    "name": "Petegem-Aan-De-Schelde"
  },
  {
    "zip": "9790",
    "name": "Wortegem"
  },
  {
    "zip": "9790",
    "name": "Wortegem-Petegem"
  },
  {
    "zip": "9800",
    "name": "Astene"
  },
  {
    "zip": "9800",
    "name": "Bachte-Maria-Leerne"
  },
  {
    "zip": "9800",
    "name": "Deinze"
  },
  {
    "zip": "9800",
    "name": "Gottem"
  },
  {
    "zip": "9800",
    "name": "Grammene"
  },
  {
    "zip": "9800",
    "name": "Meigem"
  },
  {
    "zip": "9800",
    "name": "Petegem-Aan-De-Leie"
  },
  {
    "zip": "9800",
    "name": "Sint-Martens-Leerne"
  },
  {
    "zip": "9800",
    "name": "Vinkt"
  },
  {
    "zip": "9800",
    "name": "Wontergem"
  },
  {
    "zip": "9800",
    "name": "Zeveren"
  },
  {
    "zip": "9810",
    "name": "Eke"
  },
  {
    "zip": "9810",
    "name": "Nazareth"
  },
  {
    "zip": "9820",
    "name": "Bottelare"
  },
  {
    "zip": "9820",
    "name": "Lemberge"
  },
  {
    "zip": "9820",
    "name": "Melsen"
  },
  {
    "zip": "9820",
    "name": "Merelbeke"
  },
  {
    "zip": "9820",
    "name": "Munte"
  },
  {
    "zip": "9820",
    "name": "Schelderode"
  },
  {
    "zip": "9830",
    "name": "Sint-Martens-Latem"
  },
  {
    "zip": "9831",
    "name": "Deurle"
  },
  {
    "zip": "9840",
    "name": "De Pinte"
  },
  {
    "zip": "9840",
    "name": "Zevergem"
  },
  {
    "zip": "9850",
    "name": "Hansbeke"
  },
  {
    "zip": "9850",
    "name": "Landegem"
  },
  {
    "zip": "9850",
    "name": "Merendree"
  },
  {
    "zip": "9850",
    "name": "Nevele"
  },
  {
    "zip": "9850",
    "name": "Poesele"
  },
  {
    "zip": "9850",
    "name": "Vosselare"
  },
  {
    "zip": "9860",
    "name": "Balegem"
  },
  {
    "zip": "9860",
    "name": "Gijzenzele"
  },
  {
    "zip": "9860",
    "name": "Landskouter"
  },
  {
    "zip": "9860",
    "name": "Moortsele"
  },
  {
    "zip": "9860",
    "name": "Oosterzele"
  },
  {
    "zip": "9860",
    "name": "Scheldewindeke"
  },
  {
    "zip": "9870",
    "name": "Machelen"
  },
  {
    "zip": "9870",
    "name": "Olsene"
  },
  {
    "zip": "9870",
    "name": "Zulte"
  },
  {
    "zip": "9880",
    "name": "Aalter"
  },
  {
    "zip": "9880",
    "name": "Lotenhulle"
  },
  {
    "zip": "9880",
    "name": "Poeke"
  },
  {
    "zip": "9881",
    "name": "Bellem"
  },
  {
    "zip": "9890",
    "name": "Baaigem"
  },
  {
    "zip": "9890",
    "name": "Dikkelvenne"
  },
  {
    "zip": "9890",
    "name": "Gavere"
  },
  {
    "zip": "9890",
    "name": "Vurste"
  },
  {
    "zip": "9900",
    "name": "Eeklo"
  },
  {
    "zip": "9910",
    "name": "Knesselare"
  },
  {
    "zip": "9910",
    "name": "Ursel"
  },
  {
    "zip": "9920",
    "name": "Lovendegem"
  },
  {
    "zip": "9921",
    "name": "Vinderhoute"
  },
  {
    "zip": "9930",
    "name": "Zomergem"
  },
  {
    "zip": "9931",
    "name": "Oostwinkel"
  },
  {
    "zip": "9932",
    "name": "Ronsele"
  },
  {
    "zip": "9940",
    "name": "Ertvelde"
  },
  {
    "zip": "9940",
    "name": "Evergem"
  },
  {
    "zip": "9940",
    "name": "Kluizen"
  },
  {
    "zip": "9940",
    "name": "Sleidinge"
  },
  {
    "zip": "9950",
    "name": "Waarschoot"
  },
  {
    "zip": "9960",
    "name": "Assenede"
  },
  {
    "zip": "9961",
    "name": "Boekhoute"
  },
  {
    "zip": "9968",
    "name": "Bassevelde"
  },
  {
    "zip": "9968",
    "name": "Oosteeklo"
  },
  {
    "zip": "9970",
    "name": "Kaprijke"
  },
  {
    "zip": "9971",
    "name": "Lembeke"
  },
  {
    "zip": "9980",
    "name": "Sint-Laureins"
  },
  {
    "zip": "9981",
    "name": "Sint-Margriete"
  },
  {
    "zip": "9982",
    "name": "Sint-Jan-In-Eremo"
  },
  {
    "zip": "9988",
    "name": "Waterland-Oudeman"
  },
  {
    "zip": "9988",
    "name": "Watervliet"
  },
  {
    "zip": "9990",
    "name": "Maldegem"
  },
  {
    "zip": "9991",
    "name": "Adegem"
  },
  {
    "zip": "9992",
    "name": "Middelburg"
  }
]
